{
  "type" : "FeatureCollection",
  "features" : [{"type":"Feature","id":2,"geometry":{"type":"Polygon","coordinates":[[[-122.65957255939242,45.252945863887504],[-122.66011762466756,45.253573336850927],[-122.66124157706786,45.253552100398231],[-122.66128430058772,45.253496446840103],[-122.66129440388816,45.253010927355085],[-122.66114943111809,45.253028837563626],[-122.66061566994631,45.253027162502526],[-122.65991645114494,45.252999001478038],[-122.65957255939242,45.252945863887504]]]},"properties":{"OBJECTID":2,"GRID_ID":"C-27","Shape_Length":1204.4012180142215,"Shape_Area":73365.73394811718,"HEX_ID":2}},{"type":"Feature","id":3,"geometry":{"type":"Polygon","coordinates":[[[-122.65786971863193,45.253615776599283],[-122.65845770651275,45.254292684194105],[-122.65958167369934,45.254271464055194],[-122.66011762466756,45.253573336850927],[-122.65957255939242,45.252945863887504],[-122.65953021284348,45.252939320595324],[-122.65905194047497,45.252905457565447],[-122.65882160717572,45.252930941203367],[-122.65859144090106,45.25297569917047],[-122.65834283163954,45.253046275241886],[-122.65828546604318,45.253074248959557],[-122.65786971863193,45.253615776599283]]]},"properties":{"OBJECTID":3,"GRID_ID":"D-27","Shape_Length":1705.0022910430835,"Shape_Area":213537.86222845374,"HEX_ID":3}},{"type":"Feature","id":5,"geometry":{"type":"Polygon","coordinates":[[[-122.65652872377886,45.253387105763849],[-122.65644466790744,45.253385243080913],[-122.65624735768343,45.253379297255186],[-122.65606356367411,45.253373759706875],[-122.65605313603736,45.254338044569614],[-122.65620977090646,45.254335091314438],[-122.6567457637239,45.253636979918944],[-122.65652872377886,45.253387105763849]]]},"properties":{"OBJECTID":5,"GRID_ID":"F-27","Shape_Length":908.22222491176183,"Shape_Area":41376.3283140891,"HEX_ID":5}},{"type":"Feature","id":6,"geometry":{"type":"Polygon","coordinates":[[[-122.65958167369934,45.254271464055194],[-122.66016968867839,45.254948363659494],[-122.66125451195225,45.254927866721047],[-122.66128216987751,45.253598828212581],[-122.66124157706786,45.253552100398231],[-122.66011762466756,45.253573336850927],[-122.65958167369934,45.254271464055194]]]},"properties":{"OBJECTID":6,"GRID_ID":"C-26","Shape_Length":1652.6447371515078,"Shape_Area":181564.14895850641,"HEX_ID":6}},{"type":"Feature","id":7,"geometry":{"type":"Polygon","coordinates":[[[-122.65792172851442,45.254990804418725],[-122.65850973118096,45.255667711558168],[-122.65963372543236,45.255646490913826],[-122.66016968867839,45.254948363659494],[-122.65958167369934,45.254271464055194],[-122.65845770651275,45.254292684194105],[-122.65792172851442,45.254990804418725]]]},"properties":{"OBJECTID":7,"GRID_ID":"D-26","Shape_Length":1737.2181974143236,"Shape_Area":217800.12545234407,"HEX_ID":7}},{"type":"Feature","id":8,"geometry":{"type":"Polygon","coordinates":[[[-122.65620977090646,45.254335091314438],[-122.65679774654213,45.255012008243412],[-122.65792172851442,45.254990804418725],[-122.65845770651275,45.254292684194105],[-122.65786971863193,45.253615776599283],[-122.6567457637239,45.253636979918944],[-122.65620977090646,45.254335091314438]]]},"properties":{"OBJECTID":8,"GRID_ID":"E-26","Shape_Length":1737.2181974143236,"Shape_Area":217800.12545234407,"HEX_ID":8}},{"type":"Feature","id":9,"geometry":{"type":"Polygon","coordinates":[[[-122.65605313603736,45.254338044569614],[-122.65603825197185,45.255714333380169],[-122.65626174144482,45.255710119688608],[-122.65679774654213,45.255012008243412],[-122.65620977090646,45.254335091314438],[-122.65605313603736,45.254338044569614]]]},"properties":{"OBJECTID":9,"GRID_ID":"F-26","Shape_Length":1178.7793460420176,"Shape_Area":60852.854216645821,"HEX_ID":9}},{"type":"Feature","id":10,"geometry":{"type":"Polygon","coordinates":[[[-122.65963372543236,45.255646490913826],[-122.66022175516437,45.25632338916278],[-122.66122586398515,45.25630441762447],[-122.66125451195225,45.254927866721047],[-122.66016968867839,45.254948363659494],[-122.65963372543236,45.255646490913826]]]},"properties":{"OBJECTID":10,"GRID_ID":"C-25","Shape_Length":1619.0963395571289,"Shape_Area":171226.59520826995,"HEX_ID":10}},{"type":"Feature","id":11,"geometry":{"type":"Polygon","coordinates":[[[-122.65797374086948,45.256365830932921],[-122.65856175832243,45.257042737616651],[-122.65968577963999,45.257021516466828],[-122.66022175516437,45.25632338916278],[-122.65963372543236,45.255646490913826],[-122.65850973118096,45.255667711558168],[-122.65797374086948,45.256365830932921]]]},"properties":{"OBJECTID":11,"GRID_ID":"D-25","Shape_Length":1737.217629190704,"Shape_Area":217799.98297270032,"HEX_ID":11}},{"type":"Feature","id":12,"geometry":{"type":"Polygon","coordinates":[[[-122.65626174144482,45.255710119688608],[-122.6568497318316,45.256387035262676],[-122.65797374086948,45.256365830932921],[-122.65850973118096,45.255667711558168],[-122.65792172851442,45.254990804418725],[-122.65679774654213,45.255012008243412],[-122.65626174144482,45.255710119688608]]]},"properties":{"OBJECTID":12,"GRID_ID":"E-25","Shape_Length":1737.2176291648943,"Shape_Area":217799.98296622868,"HEX_ID":12}},{"type":"Feature","id":13,"geometry":{"type":"Polygon","coordinates":[[[-122.65603825197185,45.255714333380169],[-122.65602336715435,45.257090620906155],[-122.65631371445393,45.257085146757191],[-122.6568497318316,45.256387035262676],[-122.65626174144482,45.255710119688608],[-122.65603825197185,45.255714333380169]]]},"properties":{"OBJECTID":13,"GRID_ID":"F-25","Shape_Length":1213.2196789397346,"Shape_Area":69488.734443330293,"HEX_ID":13}},{"type":"Feature","id":14,"geometry":{"type":"Polygon","coordinates":[[[-122.65968577963999,45.257021516466828],[-122.66027382415972,45.2576984142596],[-122.66119721463573,45.257680968137059],[-122.66122586398515,45.25630441762447],[-122.66022175516437,45.25632338916278],[-122.65968577963999,45.257021516466828]]]},"properties":{"OBJECTID":14,"GRID_ID":"C-24","Shape_Length":1577.4998828661237,"Shape_Area":160796.46110557325,"HEX_ID":14}},{"type":"Feature","id":15,"geometry":{"type":"Polygon","coordinates":[[[-122.6580257557313,45.257740857040659],[-122.65861378797145,45.25841776326822],[-122.65973783635643,45.258396541612939],[-122.66027382415972,45.2576984142596],[-122.65968577963999,45.257021516466828],[-122.65856175832243,45.257042737616651],[-122.6580257557313,45.257740857040659]]]},"properties":{"OBJECTID":15,"GRID_ID":"D-24","Shape_Length":1737.2176291648943,"Shape_Area":217799.98296622868,"HEX_ID":15}},{"type":"Feature","id":16,"geometry":{"type":"Polygon","coordinates":[[[-122.65631371445393,45.257085146757191],[-122.65690171962656,45.257762061875489],[-122.6580257557313,45.257740857040659],[-122.65856175832243,45.257042737616651],[-122.65797374086948,45.256365830932921],[-122.6568497318316,45.256387035262676],[-122.65631371445393,45.257085146757191]]]},"properties":{"OBJECTID":16,"GRID_ID":"E-24","Shape_Length":1737.2176291648943,"Shape_Area":217799.98296622868,"HEX_ID":16}},{"type":"Feature","id":17,"geometry":{"type":"Polygon","coordinates":[[[-122.65602336715435,45.257090620906155],[-122.65600848289249,45.2584669080222],[-122.65636568996794,45.258460173418932],[-122.65690171962656,45.257762061875489],[-122.65631371445393,45.257085146757191],[-122.65602336715435,45.257090620906155]]]},"properties":{"OBJECTID":17,"GRID_ID":"F-24","Shape_Length":1247.6602844543208,"Shape_Area":78124.57221180186,"HEX_ID":17}},{"type":"Feature","id":18,"geometry":{"type":"Polygon","coordinates":[[[-122.65973783635643,45.258396541612939],[-122.66032589566464,45.259073438949144],[-122.66116856390404,45.259057518258061],[-122.66119721463573,45.257680968137059],[-122.66027382415972,45.2576984142596],[-122.65973783635643,45.258396541612939]]]},"properties":{"OBJECTID":18,"GRID_ID":"C-23","Shape_Length":1535.9034261738834,"Shape_Area":150366.32700287655,"HEX_ID":18}},{"type":"Feature","id":19,"geometry":{"type":"Polygon","coordinates":[[[-122.65807777310008,45.259115882741135],[-122.65866582012815,45.259792788512144],[-122.65978989558187,45.259771566351375],[-122.66032589566464,45.259073438949144],[-122.65973783635643,45.258396541612939],[-122.65861378797145,45.25841776326822],[-122.65807777310008,45.259115882741135]]]},"properties":{"OBJECTID":19,"GRID_ID":"D-23","Shape_Length":1737.2176291648943,"Shape_Area":217799.98296622868,"HEX_ID":19}},{"type":"Feature","id":20,"geometry":{"type":"Polygon","coordinates":[[[-122.65636568996794,45.258460173418932],[-122.65695370992717,45.259137088081033],[-122.65807777310008,45.259115882741135],[-122.65861378797145,45.25841776326822],[-122.6580257557313,45.257740857040659],[-122.65690171962656,45.257762061875489],[-122.65636568996794,45.258460173418932]]]},"properties":{"OBJECTID":20,"GRID_ID":"E-23","Shape_Length":1737.2176291648943,"Shape_Area":217799.98296622868,"HEX_ID":20}},{"type":"Feature","id":21,"geometry":{"type":"Polygon","coordinates":[[[-122.65600848289249,45.2584669080222],[-122.65599949631674,45.25929777668113],[-122.65588598775794,45.259375607546858],[-122.65588422970524,45.259376812755086],[-122.65559936376226,45.259377142926319],[-122.65560435315825,45.259647174514534],[-122.65560443154163,45.259651407604707],[-122.65560313397832,45.259651745332761],[-122.65560586222276,45.259850503432901],[-122.65641766798703,45.25983519967302],[-122.65695370992717,45.259137088081033],[-122.65636568996794,45.258460173418932],[-122.65600848289249,45.2584669080222]]]},"properties":{"OBJECTID":21,"GRID_ID":"F-23","Shape_Length":1470.6564743992901,"Shape_Area":104527.37969083739,"HEX_ID":21}},{"type":"Feature","id":22,"geometry":{"type":"Polygon","coordinates":[[[-122.65978989558187,45.259771566351375],[-122.66037796971335,45.260448464130178],[-122.66115729587563,45.260433740393005],[-122.66116204861996,45.259370562478757],[-122.66089381347976,45.25936476452474],[-122.6611621814648,45.259364177498007],[-122.66116856390404,45.259057518258061],[-122.66032589566464,45.259073438949144],[-122.65978989558187,45.259771566351375]]]},"properties":{"OBJECTID":22,"GRID_ID":"C-22","Shape_Length":1634.4985819731078,"Shape_Area":140723.31828659258,"HEX_ID":22}},{"type":"Feature","id":23,"geometry":{"type":"Polygon","coordinates":[[[-122.65812979301005,45.260490908933164],[-122.65871785482676,45.261167814247152],[-122.65984195735054,45.261146591580896],[-122.66037796971335,45.260448464130178],[-122.65978989558187,45.259771566351375],[-122.65866582012815,45.259792788512144],[-122.65812979301005,45.260490908933164]]]},"properties":{"OBJECTID":23,"GRID_ID":"D-22","Shape_Length":1737.2181974143236,"Shape_Area":217800.12545234407,"HEX_ID":23}},{"type":"Feature","id":24,"geometry":{"type":"Polygon","coordinates":[[[-122.65641766798703,45.25983519967302],[-122.65700570276765,45.260512114778159],[-122.65812979301005,45.260490908933164],[-122.65866582012815,45.259792788512144],[-122.65807777310008,45.259115882741135],[-122.65695370992717,45.259137088081033],[-122.65641766798703,45.25983519967302]]]},"properties":{"OBJECTID":24,"GRID_ID":"E-22","Shape_Length":1737.2181974401333,"Shape_Area":217800.12545881572,"HEX_ID":24}},{"type":"Feature","id":25,"geometry":{"type":"Polygon","coordinates":[[[-122.65560586222276,45.259850503432901],[-122.65562474868736,45.261226153925072],[-122.65646964854537,45.261210226418221],[-122.65700570276765,45.260512114778159],[-122.65641766798703,45.25983519967302],[-122.65560586222276,45.259850503432901]]]},"properties":{"OBJECTID":25,"GRID_ID":"F-22","Shape_Length":1507.3605853011738,"Shape_Area":143299.22460389673,"HEX_ID":25}},{"type":"Feature","id":26,"geometry":{"type":"Polygon","coordinates":[[[-122.65984195735054,45.261146591580896],[-122.66043004623793,45.26182348800279],[-122.66115114402068,45.261809864556412],[-122.66115729587563,45.260433740393005],[-122.66037796971335,45.260448464130178],[-122.65984195735054,45.261146591580896]]]},"properties":{"OBJECTID":26,"GRID_ID":"C-21","Shape_Length":1467.2547616718712,"Shape_Area":133204.80518423702,"HEX_ID":26}},{"type":"Feature","id":27,"geometry":{"type":"Polygon","coordinates":[[[-122.65818181539326,45.261865933816736],[-122.6587698919994,45.26254283867334],[-122.65989402159448,45.262521615501598],[-122.66043004623793,45.26182348800279],[-122.65984195735054,45.261146591580896],[-122.65871785482676,45.261167814247152],[-122.65818181539326,45.261865933816736]]]},"properties":{"OBJECTID":27,"GRID_ID":"D-21","Shape_Length":1737.2176291648943,"Shape_Area":217799.98296622868,"HEX_ID":27}},{"type":"Feature","id":28,"geometry":{"type":"Polygon","coordinates":[[[-122.65646964854537,45.261210226418221],[-122.6570576980801,45.261887140166849],[-122.65818181539326,45.261865933816736],[-122.65871785482676,45.261167814247152],[-122.65812979301005,45.260490908933164],[-122.65700570276765,45.260512114778159],[-122.65646964854537,45.261210226418221]]]},"properties":{"OBJECTID":28,"GRID_ID":"E-21","Shape_Length":1737.2176291648943,"Shape_Area":217799.98296622868,"HEX_ID":28}},{"type":"Feature","id":29,"geometry":{"type":"Polygon","coordinates":[[[-122.65562474868736,45.261226153925072],[-122.65564363602867,45.262601803128589],[-122.65652163157517,45.262585251854638],[-122.6570576980801,45.261887140166849],[-122.65646964854537,45.261210226418221],[-122.65562474868736,45.261226153925072]]]},"properties":{"OBJECTID":29,"GRID_ID":"F-21","Shape_Length":1524.3980308894229,"Shape_Area":147571.35116725124,"HEX_ID":29}},{"type":"Feature","id":30,"geometry":{"type":"Polygon","coordinates":[[[-122.65989402159448,45.262521615501598],[-122.66048212527261,45.263198511465681],[-122.66114499186895,45.263185988332921],[-122.66115114402068,45.261809864556412],[-122.66043004623793,45.26182348800279],[-122.65989402159448,45.262521615501598]]]},"properties":{"OBJECTID":30,"GRID_ID":"C-20","Shape_Length":1437.2495123206081,"Shape_Area":125681.11688456617,"HEX_ID":30}},{"type":"Feature","id":31,"geometry":{"type":"Polygon","coordinates":[[[-122.65823384028398,45.263240958290694],[-122.65882193168027,45.263917862689539],[-122.65994608834799,45.263896639012238],[-122.66048212527261,45.263198511465681],[-122.65989402159448,45.262521615501598],[-122.6587698919994,45.26254283867334],[-122.65823384028398,45.263240958290694]]]},"properties":{"OBJECTID":31,"GRID_ID":"D-20","Shape_Length":1737.2176291648943,"Shape_Area":217799.98296622868,"HEX_ID":31}},{"type":"Feature","id":32,"geometry":{"type":"Polygon","coordinates":[[[-122.65652163157517,45.262585251854638],[-122.65710969589874,45.26326216514591],[-122.65823384028398,45.263240958290694],[-122.6587698919994,45.26254283867334],[-122.65818181539326,45.261865933816736],[-122.6570576980801,45.261887140166849],[-122.65652163157517,45.262585251854638]]]},"properties":{"OBJECTID":32,"GRID_ID":"E-20","Shape_Length":1737.2176291648943,"Shape_Area":217799.98296622868,"HEX_ID":32}},{"type":"Feature","id":33,"geometry":{"type":"Polygon","coordinates":[[[-122.65564363602867,45.262601803128589],[-122.65566252555463,45.263977451918251],[-122.65657361711062,45.263960276881079],[-122.65710969589874,45.26326216514591],[-122.65652163157517,45.262585251854638],[-122.65564363602867,45.262601803128589]]]},"properties":{"OBJECTID":33,"GRID_ID":"F-20","Shape_Length":1541.4357549827691,"Shape_Area":151843.4892134199,"HEX_ID":33}},{"type":"Feature","id":34,"geometry":{"type":"Polygon","coordinates":[[[-122.65994608834799,45.263896639012238],[-122.66053420681756,45.264573534518171],[-122.66113883814664,45.264562111745832],[-122.66114489948031,45.263206529194413],[-122.66114499186895,45.263185988332921],[-122.66048212527261,45.263198511465681],[-122.65994608834799,45.263896639012238]]]},"properties":{"OBJECTID":34,"GRID_ID":"C-19","Shape_Length":1407.2439447023021,"Shape_Area":118157.31166095875,"HEX_ID":34}},{"type":"Feature","id":35,"geometry":{"type":"Polygon","coordinates":[[[-122.65828586768241,45.264615982354208],[-122.65887397386956,45.26529288629488],[-122.65999815761124,45.265271662112077],[-122.66053420681756,45.264573534518171],[-122.65994608834799,45.263896639012238],[-122.65882193168027,45.263917862689539],[-122.65828586768241,45.264615982354208]]]},"properties":{"OBJECTID":35,"GRID_ID":"D-19","Shape_Length":1737.2176291648943,"Shape_Area":217799.98296622868,"HEX_ID":35}},{"type":"Feature","id":36,"geometry":{"type":"Polygon","coordinates":[[[-122.65657361711062,45.263960276881079],[-122.65716169622375,45.264637189714577],[-122.65828586768241,45.264615982354208],[-122.65882193168027,45.263917862689539],[-122.65823384028398,45.263240958290694],[-122.65710969589874,45.26326216514591],[-122.65657361711062,45.263960276881079]]]},"properties":{"OBJECTID":36,"GRID_ID":"E-19","Shape_Length":1737.2176291648943,"Shape_Area":217799.98296622868,"HEX_ID":36}},{"type":"Feature","id":37,"geometry":{"type":"Polygon","coordinates":[[[-122.65491335207419,45.264679571271841],[-122.65550141890289,45.265356492539688],[-122.65662560515186,45.265335301496691],[-122.65716169622375,45.264637189714577],[-122.65657361711062,45.263960276881079],[-122.65566252555463,45.263977451918251],[-122.65567074147485,45.264575798271686],[-122.65555061482401,45.264574220154259],[-122.65555061473418,45.264574049117094],[-122.65499394623377,45.264574624720431],[-122.65491335207419,45.264679571271841]]]},"properties":{"OBJECTID":37,"GRID_ID":"F-19","Shape_Length":1828.8066273600921,"Shape_Area":192996.4390000065,"HEX_ID":37}},{"type":"Feature","id":39,"geometry":{"type":"Polygon","coordinates":[[[-122.65197465497658,45.265242483667343],[-122.652128857696,45.265419999340956],[-122.65325304517452,45.265398841461845],[-122.6537891781103,45.264700745492718],[-122.65368078791052,45.264575972010192],[-122.65244590856946,45.26457722465733],[-122.65244577474841,45.264577225375263],[-122.65209941821534,45.264577573744042],[-122.6519714719111,45.264577702656091],[-122.65197465497658,45.265242483667343]]]},"properties":{"OBJECTID":39,"GRID_ID":"H-19","Shape_Length":1390.8243429689471,"Shape_Area":122051.93893545039,"HEX_ID":39}},{"type":"Feature","id":40,"geometry":{"type":"Polygon","coordinates":[[[-122.65999815761124,45.265271662112077],[-122.66058629090705,45.265948558058966],[-122.66114270949026,45.265938046248195],[-122.66113792884552,45.264765450447776],[-122.66113883814664,45.264562111745832],[-122.66053420681756,45.264573534518171],[-122.65999815761124,45.265271662112077]]]},"properties":{"OBJECTID":40,"GRID_ID":"C-18","Shape_Length":1379.7512517156438,"Shape_Area":111185.33169034081,"HEX_ID":40}},{"type":"Feature","id":41,"geometry":{"type":"Polygon","coordinates":[[[-122.6583378976227,45.26599100690607],[-122.65892601860149,45.266667910388193],[-122.66005022941842,45.26664668569984],[-122.66058629090705,45.265948558058966],[-122.65999815761124,45.265271662112077],[-122.65887397386956,45.26529288629488],[-122.6583378976227,45.26599100690607]]]},"properties":{"OBJECTID":41,"GRID_ID":"D-18","Shape_Length":1737.2181974401333,"Shape_Area":217800.12545881572,"HEX_ID":41}},{"type":"Feature","id":42,"geometry":{"type":"Polygon","coordinates":[[[-122.65662560515186,45.265335301496691],[-122.65721369908935,45.266012214771571],[-122.6583378976227,45.26599100690607],[-122.65887397386956,45.26529288629488],[-122.65828586768241,45.264615982354208],[-122.65716169622375,45.264637189714577],[-122.65662560515186,45.265335301496691]]]},"properties":{"OBJECTID":42,"GRID_ID":"E-18","Shape_Length":1737.2181974143236,"Shape_Area":217800.12545234407,"HEX_ID":42}},{"type":"Feature","id":43,"geometry":{"type":"Polygon","coordinates":[[[-122.65496530079024,45.266054597338304],[-122.6555533824087,45.266731518148063],[-122.65667759573313,45.26671032660029],[-122.65721369908935,45.266012214771571],[-122.65662560515186,45.265335301496691],[-122.65550141890289,45.265356492539688],[-122.65496530079024,45.266054597338304]]]},"properties":{"OBJECTID":43,"GRID_ID":"F-18","Shape_Length":1737.2181974401333,"Shape_Area":217800.12545881572,"HEX_ID":43}},{"type":"Feature","id":44,"geometry":{"type":"Polygon","coordinates":[[[-122.65325304517452,45.265398841461845],[-122.65384109975146,45.266075772063537],[-122.65496530079024,45.266054597338304],[-122.65550141890289,45.265356492539688],[-122.65491335207419,45.264679571271841],[-122.6537891781103,45.264700745492718],[-122.65325304517452,45.265398841461845]]]},"properties":{"OBJECTID":44,"GRID_ID":"G-18","Shape_Length":1737.2181974143236,"Shape_Area":217800.12545234407,"HEX_ID":44}},{"type":"Feature","id":45,"geometry":{"type":"Polygon","coordinates":[[[-122.65198098934513,45.266565082046228],[-122.65218073997518,45.266795026462027],[-122.6533049545293,45.266773868078921],[-122.65384109975146,45.266075772063537],[-122.65325304517452,45.265398841461845],[-122.652128857696,45.265419999340956],[-122.65197645573787,45.265618430601073],[-122.65198098934513,45.266565082046228]]]},"properties":{"OBJECTID":45,"GRID_ID":"H-18","Shape_Length":1683.9327441130943,"Shape_Area":200643.84257606155,"HEX_ID":45}},{"type":"Feature","id":47,"geometry":{"type":"Polygon","coordinates":[[[-122.66005022941842,45.26664668569984],[-122.66063837747309,45.267323580288149],[-122.66114831985614,45.267313946607963],[-122.66114270949026,45.265938046248195],[-122.66058629090705,45.265948558058966],[-122.66005022941842,45.26664668569984]]]},"properties":{"OBJECTID":47,"GRID_ID":"C-17","Shape_Length":1355.3445706917223,"Shape_Area":105164.22554785422,"HEX_ID":47}},{"type":"Feature","id":48,"geometry":{"type":"Polygon","coordinates":[[[-122.65838993003698,45.267366030146349],[-122.65897806580816,45.268042933169511],[-122.66010230370165,45.268021707975592],[-122.66063837747309,45.267323580288149],[-122.66005022941842,45.26664668569984],[-122.65892601860149,45.266667910388193],[-122.65838993003698,45.267366030146349]]]},"properties":{"OBJECTID":48,"GRID_ID":"D-17","Shape_Length":1737.2176291648943,"Shape_Area":217799.98296622868,"HEX_ID":48}},{"type":"Feature","id":49,"geometry":{"type":"Polygon","coordinates":[[[-122.65667759573313,45.26671032660029],[-122.65726570442767,45.267387238516996],[-122.65838993003698,45.267366030146349],[-122.65892601860149,45.266667910388193],[-122.6583378976227,45.26599100690607],[-122.65721369908935,45.266012214771571],[-122.65667759573313,45.26671032660029]]]},"properties":{"OBJECTID":49,"GRID_ID":"E-17","Shape_Length":1737.2176291648943,"Shape_Area":217799.98296622868,"HEX_ID":49}},{"type":"Feature","id":50,"geometry":{"type":"Polygon","coordinates":[[[-122.6550172519764,45.267429622093289],[-122.65560534838539,45.268106542444464],[-122.65672958878655,45.268085350391921],[-122.65726570442767,45.267387238516996],[-122.65667759573313,45.26671032660029],[-122.6555533824087,45.266731518148063],[-122.6550172519764,45.267429622093289]]]},"properties":{"OBJECTID":50,"GRID_ID":"F-17","Shape_Length":1737.2176291648943,"Shape_Area":217799.98296622868,"HEX_ID":50}},{"type":"Feature","id":51,"geometry":{"type":"Polygon","coordinates":[[[-122.6533049545293,45.266773868078921],[-122.65389302386149,45.267450797322894],[-122.6550172519764,45.267429622093289],[-122.6555533824087,45.266731518148063],[-122.65496530079024,45.266054597338304],[-122.65384109975146,45.266075772063537],[-122.6533049545293,45.266773868078921]]]},"properties":{"OBJECTID":51,"GRID_ID":"G-17","Shape_Length":1737.2176291648943,"Shape_Area":217799.98296622868,"HEX_ID":51}},{"type":"Feature","id":52,"geometry":{"type":"Polygon","coordinates":[[[-122.65198732397351,45.267887679165646],[-122.65223262472139,45.268170052271103],[-122.65335686635237,45.268148893384051],[-122.65389302386149,45.267450797322894],[-122.6533049545293,45.266773868078921],[-122.65218073997518,45.266795026462027],[-122.65198332206211,45.26705206344419],[-122.65198455555202,45.267309648693981],[-122.65198592641671,45.26759581009528],[-122.65198732397351,45.267887679165646]]]},"properties":{"OBJECTID":52,"GRID_ID":"H-17","Shape_Length":1690.1820350162425,"Shape_Area":204432.24068584543,"HEX_ID":52}},{"type":"Feature","id":54,"geometry":{"type":"Polygon","coordinates":[[[-122.66010230370165,45.268021707975592],[-122.66069046654999,45.268698602104507],[-122.66115393049265,45.268689846577871],[-122.66114831985614,45.267313946607963],[-122.66063837747309,45.267323580288149],[-122.66010230370165,45.268021707975592]]]},"properties":{"OBJECTID":54,"GRID_ID":"C-16","Shape_Length":1331.3983764747577,"Shape_Area":99159.819480768405,"HEX_ID":54}},{"type":"Feature","id":55,"geometry":{"type":"Polygon","coordinates":[[[-122.65844196495949,45.268741052973844],[-122.65903011552379,45.269417955537612],[-122.66015438049513,45.269396729838135],[-122.66069046654999,45.268698602104507],[-122.66010230370165,45.268021707975592],[-122.65897806580816,45.268042933169511],[-122.65844196495949,45.268741052973844]]]},"properties":{"OBJECTID":55,"GRID_ID":"D-16","Shape_Length":1737.2176291648943,"Shape_Area":217799.98296622868,"HEX_ID":55}},{"type":"Feature","id":56,"geometry":{"type":"Polygon","coordinates":[[[-122.65672958878655,45.268085350391921],[-122.65731771227289,45.268762261849666],[-122.65844196495949,45.268741052973844],[-122.65897806580816,45.268042933169511],[-122.65838993003698,45.267366030146349],[-122.65726570442767,45.267387238516996],[-122.65672958878655,45.268085350391921]]]},"properties":{"OBJECTID":56,"GRID_ID":"E-16","Shape_Length":1737.2176291648943,"Shape_Area":217799.98296622868,"HEX_ID":56}},{"type":"Feature","id":57,"geometry":{"type":"Polygon","coordinates":[[[-122.65506920566692,45.268804646435484],[-122.65565731686713,45.26948156632767],[-122.65678158434631,45.269460373770372],[-122.65731771227289,45.268762261849666],[-122.65672958878655,45.268085350391921],[-122.65560534838539,45.268106542444464],[-122.65506920566692,45.268804646435484]]]},"properties":{"OBJECTID":57,"GRID_ID":"F-16","Shape_Length":1737.2176291648943,"Shape_Area":217799.98296622868,"HEX_ID":57}},{"type":"Feature","id":58,"geometry":{"type":"Polygon","coordinates":[[[-122.65335686635237,45.268148893384051],[-122.6539449504745,45.268825822169454],[-122.65506920566692,45.268804646435484],[-122.65560534838539,45.268106542444464],[-122.6550172519764,45.267429622093289],[-122.65389302386149,45.267450797322894],[-122.65335686635237,45.268148893384051]]]},"properties":{"OBJECTID":58,"GRID_ID":"G-16","Shape_Length":1737.2176291648943,"Shape_Area":217799.98296622868,"HEX_ID":58}},{"type":"Feature","id":59,"geometry":{"type":"Polygon","coordinates":[[[-122.65199365889556,45.26921027592433],[-122.65228451196872,45.269545077667111],[-122.65340878067791,45.26952391827605],[-122.6539449504745,45.268825822169454],[-122.65335686635237,45.268148893384051],[-122.65223262472139,45.268170052271103],[-122.65199018869754,45.268485694964554],[-122.65199027265778,45.268503327461204],[-122.65199189794339,45.26884289124574],[-122.65199365889556,45.26921027592433]]]},"properties":{"OBJECTID":59,"GRID_ID":"H-16","Shape_Length":1696.4319380677307,"Shape_Area":207748.78762578749,"HEX_ID":59}},{"type":"Feature","id":61,"geometry":{"type":"Polygon","coordinates":[[[-122.66015438049513,45.269396729838135],[-122.6607425581379,45.270073623507251],[-122.66120755944571,45.270064838936733],[-122.66118496977194,45.269991219335189],[-122.66115463110297,45.269808614224722],[-122.6611532483998,45.269598450469346],[-122.66115618188502,45.269241886646782],[-122.66115393049265,45.268689846577871],[-122.66069046654999,45.268698602104507],[-122.66015438049513,45.269396729838135]]]},"properties":{"OBJECTID":61,"GRID_ID":"C-15","Shape_Length":1320.5687031398747,"Shape_Area":93444.926734123103,"HEX_ID":61}},{"type":"Feature","id":62,"geometry":{"type":"Polygon","coordinates":[[[-122.65849400239043,45.27011607538774],[-122.65908216778261,45.270792978391277],[-122.66020645983312,45.270771752186214],[-122.6607425581379,45.270073623507251],[-122.66015438049513,45.269396729838135],[-122.65903011552379,45.269417955537612],[-122.65849400239043,45.27011607538774]]]},"properties":{"OBJECTID":62,"GRID_ID":"D-15","Shape_Length":1737.2181974143236,"Shape_Area":217800.12545234407,"HEX_ID":62}},{"type":"Feature","id":63,"geometry":{"type":"Polygon","coordinates":[[[-122.65678158434631,45.269460373770372],[-122.65736972262521,45.27013728476873],[-122.65849400239043,45.27011607538774],[-122.65903011552379,45.269417955537612],[-122.65844196495949,45.268741052973844],[-122.65731771227289,45.268762261849666],[-122.65678158434631,45.269460373770372]]]},"properties":{"OBJECTID":63,"GRID_ID":"E-15","Shape_Length":1737.2176291648943,"Shape_Area":217799.98296622868,"HEX_ID":63}},{"type":"Feature","id":64,"geometry":{"type":"Polygon","coordinates":[[[-122.65512116186191,45.270179670364122],[-122.65570928788811,45.270856590696511],[-122.65683358244665,45.270835397634386],[-122.65736972262521,45.27013728476873],[-122.65678158434631,45.269460373770372],[-122.65565731686713,45.26948156632767],[-122.65512116186191,45.270179670364122]]]},"properties":{"OBJECTID":64,"GRID_ID":"F-15","Shape_Length":1737.2181974143236,"Shape_Area":217800.12545234407,"HEX_ID":64}},{"type":"Feature","id":65,"geometry":{"type":"Polygon","coordinates":[[[-122.65340878067791,45.26952391827605],[-122.65399687959072,45.270200846602471],[-122.65512116186191,45.270179670364122],[-122.65565731686713,45.26948156632767],[-122.65506920566692,45.268804646435484],[-122.6539449504745,45.268825822169454],[-122.65340878067791,45.26952391827605]]]},"properties":{"OBJECTID":65,"GRID_ID":"G-15","Shape_Length":1737.2176291648943,"Shape_Area":217799.98296622868,"HEX_ID":65}},{"type":"Feature","id":66,"geometry":{"type":"Polygon","coordinates":[[[-122.65199999545322,45.270532874096865],[-122.65233640175133,45.270920103548711],[-122.65346069754001,45.270898943653627],[-122.65399687959072,45.270200846602471],[-122.65340878067791,45.26952391827605],[-122.65228451196872,45.269545077667111],[-122.65199705564412,45.269919325161212],[-122.6519981177027,45.27014083966418],[-122.65199884313745,45.270292479559011],[-122.6519989723658,45.270319386885646],[-122.65199913283681,45.270352730973478],[-122.65199913888981,45.270354073961961],[-122.65199936186865,45.270400630047831],[-122.65199999545322,45.270532874096865]]]},"properties":{"OBJECTID":66,"GRID_ID":"H-15","Shape_Length":1702.6823693022525,"Shape_Area":210593.27055201097,"HEX_ID":66}},{"type":"Feature","id":68,"geometry":{"type":"Polygon","coordinates":[[[-122.66020645983312,45.270771752186214],[-122.66079465227106,45.271448645395189],[-122.66138746372866,45.271437445971117],[-122.6616203021088,45.27108904636976],[-122.6617928686797,45.270838926446515],[-122.66183882006426,45.270770833385058],[-122.66190826953006,45.270667917354636],[-122.66160443107793,45.270483472925754],[-122.66146418040891,45.270393221935763],[-122.66140006965755,45.27034017885169],[-122.66132229912665,45.270259896153327],[-122.66125801583513,45.27016895220391],[-122.66125755387526,45.270168132743159],[-122.6612173931816,45.270096884997884],[-122.66120755944571,45.270064838936733],[-122.6607425581379,45.270073623507251],[-122.66020645983312,45.270771752186214]]]},"properties":{"OBJECTID":68,"GRID_ID":"C-14","Shape_Length":1452.6204998212961,"Shape_Area":140211.51811598812,"HEX_ID":68}},{"type":"Feature","id":69,"geometry":{"type":"Polygon","coordinates":[[[-122.65854604236398,45.271491098286823],[-122.65913422251671,45.272167999930574],[-122.66025854164768,45.272146773219951],[-122.66079465227106,45.271448645395189],[-122.66020645983312,45.270771752186214],[-122.65908216778261,45.270792978391277],[-122.65854604236398,45.271491098286823]]]},"properties":{"OBJECTID":69,"GRID_ID":"D-14","Shape_Length":1737.2176291648943,"Shape_Area":217799.98296622868,"HEX_ID":69}},{"type":"Feature","id":70,"geometry":{"type":"Polygon","coordinates":[[[-122.65683358244665,45.270835397634386],[-122.65742173551885,45.271512308173001],[-122.65854604236398,45.271491098286823],[-122.65908216778261,45.270792978391277],[-122.65849400239043,45.27011607538774],[-122.65736972262521,45.27013728476873],[-122.65683358244665,45.270835397634386]]]},"properties":{"OBJECTID":70,"GRID_ID":"E-14","Shape_Length":1737.2181974401333,"Shape_Area":217800.12545881572,"HEX_ID":70}},{"type":"Feature","id":71,"geometry":{"type":"Polygon","coordinates":[[[-122.65517312059553,45.27155469477799],[-122.6557612613805,45.272231613751018],[-122.65688558301969,45.272210420184116],[-122.65742173551885,45.271512308173001],[-122.65683358244665,45.270835397634386],[-122.65570928788811,45.270856590696511],[-122.65517312059553,45.27155469477799]]]},"properties":{"OBJECTID":71,"GRID_ID":"F-14","Shape_Length":1737.2176291648943,"Shape_Area":217799.98296622868,"HEX_ID":71}},{"type":"Feature","id":72,"geometry":{"type":"Polygon","coordinates":[[[-122.65346069754001,45.270898943653627],[-122.65404881124427,45.271575871520767],[-122.65517312059553,45.27155469477799],[-122.65570928788811,45.270856590696511],[-122.65512116186191,45.270179670364122],[-122.65399687959072,45.270200846602471],[-122.65346069754001,45.270898943653627]]]},"properties":{"OBJECTID":72,"GRID_ID":"G-14","Shape_Length":1737.2181974401333,"Shape_Area":217800.12545881572,"HEX_ID":72}},{"type":"Feature","id":73,"geometry":{"type":"Polygon","coordinates":[[[-122.65220359530736,45.271093004358917],[-122.65317541588482,45.271088579992806],[-122.65317528625792,45.271108514724304],[-122.65315944820883,45.272280615744897],[-122.65351261687097,45.272273967716984],[-122.65404881124427,45.271575871520767],[-122.65346069754001,45.270898943653627],[-122.65233640175133,45.270920103548711],[-122.65220359530736,45.271093004358917]]]},"properties":{"OBJECTID":73,"GRID_ID":"H-14","Shape_Length":1716.0715402381491,"Shape_Area":92493.759639914482,"HEX_ID":73}},{"type":"Feature","id":75,"geometry":{"type":"Polygon","coordinates":[[[-122.66025854164768,45.272146773219951],[-122.66062446570933,45.272567870118252],[-122.66078386002374,45.272340608498524],[-122.66138746372866,45.271437445971117],[-122.66079465227106,45.271448645395189],[-122.66025854164768,45.272146773219951]]]},"properties":{"OBJECTID":75,"GRID_ID":"C-13","Shape_Length":1078.8825608233285,"Shape_Area":53947.335366464322,"HEX_ID":75}},{"type":"Feature","id":76,"geometry":{"type":"Polygon","coordinates":[[[-122.65859808481224,45.272866119871146],[-122.65918627976033,45.273543021054302],[-122.65994241292697,45.273528746774559],[-122.6600847311783,45.273313576167681],[-122.66029607376315,45.273036077911826],[-122.66062446570933,45.272567870118252],[-122.66025854164768,45.272146773219951],[-122.65913422251671,45.272167999930574],[-122.65859808481224,45.272866119871146]]]},"properties":{"OBJECTID":76,"GRID_ID":"D-13","Shape_Length":1635.3868568683783,"Shape_Area":187599.38384396528,"HEX_ID":76}},{"type":"Feature","id":77,"geometry":{"type":"Polygon","coordinates":[[[-122.65688558301969,45.272210420184116],[-122.65747375088591,45.272887330262535],[-122.65859808481224,45.272866119871146],[-122.65913422251671,45.272167999930574],[-122.65854604236398,45.271491098286823],[-122.65742173551885,45.271512308173001],[-122.65688558301969,45.272210420184116]]]},"properties":{"OBJECTID":77,"GRID_ID":"E-13","Shape_Length":1737.2176291648943,"Shape_Area":217799.98296622868,"HEX_ID":77}},{"type":"Feature","id":78,"geometry":{"type":"Polygon","coordinates":[[[-122.65522508180005,45.272929717877126],[-122.6558132373785,45.273606636389971],[-122.65693758609962,45.273585442318264],[-122.65747375088591,45.272887330262535],[-122.65688558301969,45.272210420184116],[-122.6557612613805,45.272231613751018],[-122.65522508180005,45.272929717877126]]]},"properties":{"OBJECTID":78,"GRID_ID":"F-13","Shape_Length":1737.2176291648943,"Shape_Area":217799.98296622868,"HEX_ID":78}},{"type":"Feature","id":79,"geometry":{"type":"Polygon","coordinates":[[[-122.65351261687097,45.272273967716984],[-122.6541007453674,45.27295089512431],[-122.65522508180005,45.272929717877126],[-122.6557612613805,45.272231613751018],[-122.65517312059553,45.27155469477799],[-122.65404881124427,45.271575871520767],[-122.65351261687097,45.272273967716984]]]},"properties":{"OBJECTID":79,"GRID_ID":"G-13","Shape_Length":1737.2176291648943,"Shape_Area":217799.98296622868,"HEX_ID":79}},{"type":"Feature","id":80,"geometry":{"type":"Polygon","coordinates":[[[-122.65315944820883,45.272280615744897],[-122.65314084840017,45.273656966755425],[-122.65356453870493,45.27364899136478],[-122.6541007453674,45.27295089512431],[-122.65351261687097,45.272273967716984],[-122.65315944820883,45.272280615744897]]]},"properties":{"OBJECTID":80,"GRID_ID":"H-13","Shape_Length":1280.9469586743344,"Shape_Area":86462.772824304455,"HEX_ID":80}},{"type":"Feature","id":81,"geometry":{"type":"Polygon","coordinates":[[[-122.65865012976946,45.274241141039525],[-122.65910025885611,45.274759142322523],[-122.65966533310061,45.273955536534174],[-122.65987822289152,45.273625794506877],[-122.65994241292697,45.273528746774559],[-122.65918627976033,45.273543021054302],[-122.65865012976946,45.274241141039525]]]},"properties":{"OBJECTID":81,"GRID_ID":"D-12","Shape_Length":1204.0977318715688,"Shape_Area":71716.610442681442,"HEX_ID":81}},{"type":"Feature","id":82,"geometry":{"type":"Polygon","coordinates":[[[-122.65693758609962,45.273585442318264],[-122.65752576876064,45.274262351936095],[-122.65865012976946,45.274241141039525],[-122.65918627976033,45.273543021054302],[-122.65859808481224,45.272866119871146],[-122.65747375088591,45.272887330262535],[-122.65693758609962,45.273585442318264]]]},"properties":{"OBJECTID":82,"GRID_ID":"E-12","Shape_Length":1737.2176291648943,"Shape_Area":217799.98296622868,"HEX_ID":82}},{"type":"Feature","id":83,"geometry":{"type":"Polygon","coordinates":[[[-122.65527704550962,45.274304740560325],[-122.65586521588224,45.274981658612617],[-122.65698959168664,45.27496046403607],[-122.65752576876064,45.274262351936095],[-122.65693758609962,45.273585442318264],[-122.6558132373785,45.273606636389971],[-122.65527704550962,45.274304740560325]]]},"properties":{"OBJECTID":83,"GRID_ID":"F-12","Shape_Length":1737.2176291648943,"Shape_Area":217799.98296622868,"HEX_ID":83}},{"type":"Feature","id":84,"geometry":{"type":"Polygon","coordinates":[[[-122.65356453870493,45.27364899136478],[-122.65415268199426,45.274325918311959],[-122.65527704550962,45.274304740560325],[-122.6558132373785,45.273606636389971],[-122.65522508180005,45.272929717877126],[-122.6541007453674,45.27295089512431],[-122.65356453870493,45.27364899136478]]]},"properties":{"OBJECTID":84,"GRID_ID":"G-12","Shape_Length":1737.2176291648943,"Shape_Area":217799.98296622868,"HEX_ID":84}},{"type":"Feature","id":85,"geometry":{"type":"Polygon","coordinates":[[[-122.65314084840017,45.273656966755425],[-122.65312224896805,45.275033317345475],[-122.65361646304204,45.275024014596291],[-122.65415268199426,45.274325918311959],[-122.65356453870493,45.27364899136478],[-122.65314084840017,45.273656966755425]]]},"properties":{"OBJECTID":85,"GRID_ID":"H-12","Shape_Length":1317.2628916827621,"Shape_Area":95568.841112169059,"HEX_ID":85}},{"type":"Feature","id":86,"geometry":{"type":"Polygon","coordinates":[[[-122.65698959168664,45.27496046403607],[-122.65757778914316,45.275637373192957],[-122.65850460890499,45.27561988968737],[-122.659011309031,45.274885637955393],[-122.65910025885611,45.274759142322523],[-122.65865012976946,45.274241141039525],[-122.65752576876064,45.274262351936095],[-122.65698959168664,45.27496046403607]]]},"properties":{"OBJECTID":86,"GRID_ID":"E-11","Shape_Length":1678.1115639896975,"Shape_Area":201345.98369934986,"HEX_ID":86}},{"type":"Feature","id":87,"geometry":{"type":"Polygon","coordinates":[[[-122.65551601118887,45.275894975305135],[-122.65632701138095,45.275894848437318],[-122.65695792288886,45.275894745570398],[-122.65712681075645,45.275894717276103],[-122.65738016934739,45.275894674762363],[-122.65757778914316,45.275637373192957],[-122.65698959168664,45.27496046403607],[-122.65586521588224,45.274981658612617],[-122.65532901172438,45.27567976282684],[-122.65551601118887,45.275894975305135]]]},"properties":{"OBJECTID":87,"GRID_ID":"F-11","Shape_Length":1547.2323461001865,"Shape_Area":154486.09693995866,"HEX_ID":87}},{"type":"Feature","id":88,"geometry":{"type":"Polygon","coordinates":[[[-122.65361646304204,45.275024014596291],[-122.65420462112502,45.275700941082867],[-122.65532901172438,45.27567976282684],[-122.65586521588224,45.274981658612617],[-122.65527704550962,45.274304740560325],[-122.65415268199426,45.274325918311959],[-122.65361646304204,45.275024014596291]]]},"properties":{"OBJECTID":88,"GRID_ID":"G-11","Shape_Length":1737.2176291648943,"Shape_Area":217799.98296622868,"HEX_ID":88}},{"type":"Feature","id":89,"geometry":{"type":"Polygon","coordinates":[[[-122.65312224896805,45.275033317345475],[-122.65311059889326,45.27589531890731],[-122.65325249521381,45.275895300216696],[-122.65405541323932,45.275895190337259],[-122.65420462112502,45.275700941082867],[-122.65361646304204,45.275024014596291],[-122.65312224896805,45.275033317345475]]]},"properties":{"OBJECTID":89,"GRID_ID":"H-11","Shape_Length":1054.8600030330069,"Shape_Area":68712.508228566512,"HEX_ID":89}},{"type":"Feature","id":94,"geometry":{"type":"Polygon","coordinates":[[[-122.66263765232486,45.280144548863625],[-122.66294783725097,45.279804176481797],[-122.66338401417616,45.280343736180996],[-122.66394452392618,45.280333136060669],[-122.66425821255717,45.279924664389199],[-122.66311614704325,45.279475447229437],[-122.66296404798624,45.279415619151848],[-122.66288757143221,45.279385537122224],[-122.6627208838441,45.279319971162572],[-122.66255610584574,45.279255155649359],[-122.66223173648559,45.279677517412132],[-122.66263765232486,45.280144548863625]]]},"properties":{"OBJECTID":94,"GRID_ID":"B-8","Shape_Length":1564.2459149622409,"Shape_Area":102235.82594898689,"HEX_ID":94}},{"type":"Feature","id":95,"geometry":{"type":"Polygon","coordinates":[[[-122.66051898842035,45.279021873038417],[-122.66110726964483,45.279698763477754],[-122.66223173648559,45.279677517412132],[-122.66255610584574,45.279255155649359],[-122.66116371926239,45.278707440674594],[-122.66108340809286,45.278675847349234],[-122.66099303374695,45.278628898431776],[-122.66070422412699,45.278781159443881],[-122.66070369551376,45.278781375573971],[-122.66051898842035,45.279021873038417]]]},"properties":{"OBJECTID":95,"GRID_ID":"C-8","Shape_Length":1409.7368559083407,"Shape_Area":124128.82631228934,"HEX_ID":95}},{"type":"Feature","id":96,"geometry":{"type":"Polygon","coordinates":[[[-122.65885833472545,45.279741222436918],[-122.65944660366139,45.280418121311129],[-122.66057108530252,45.280396891566681],[-122.66110726964483,45.279698763477754],[-122.66051898842035,45.279021873038417],[-122.65939453386753,45.279043102277193],[-122.65885833472545,45.279741222436918]]]},"properties":{"OBJECTID":96,"GRID_ID":"D-8","Shape_Length":1737.2176291648943,"Shape_Area":217799.98296622868,"HEX_ID":96}},{"type":"Feature","id":97,"geometry":{"type":"Polygon","coordinates":[[[-122.65714562352598,45.279085527583049],[-122.65773386537356,45.279762435354499],[-122.65885833472545,45.279741222436918],[-122.65939453386753,45.279043102277193],[-122.65934833189594,45.278989938717181],[-122.65722106194484,45.278987312687093],[-122.65714562352598,45.279085527583049]]]},"properties":{"OBJECTID":97,"GRID_ID":"E-8","Shape_Length":1479.6402085480336,"Shape_Area":124414.74492841744,"HEX_ID":97}},{"type":"Feature","id":98,"geometry":{"type":"Polygon","coordinates":[[[-122.65599772935668,45.280394947615846],[-122.6560731549927,45.280481744223493],[-122.65719763914313,45.280460547627527],[-122.65773386537356,45.279762435354499],[-122.65714562352598,45.279085527583049],[-122.65619037270946,45.279103534832302],[-122.65615054538891,45.279227587034889],[-122.65609885154157,45.279659823805368],[-122.65603096955321,45.280102075142551],[-122.65599772935668,45.280394947615846]]]},"properties":{"OBJECTID":98,"GRID_ID":"F-8","Shape_Length":1625.5266108763319,"Shape_Area":177197.57380134542,"HEX_ID":98}},{"type":"Feature","id":99,"geometry":{"type":"Polygon","coordinates":[[[-122.66394452392618,45.280333136060669],[-122.66450081639516,45.280973143910408],[-122.66507044058224,45.280349779425698],[-122.66493006715909,45.280210835359171],[-122.66489360641894,45.280174580890133],[-122.66425821255717,45.279924664389199],[-122.66394452392618,45.280333136060669]]]},"properties":{"OBJECTID":99,"GRID_ID":"A-7","Shape_Length":979.27648119119192,"Shape_Area":58349.211205354826,"HEX_ID":99}},{"type":"Feature","id":100,"geometry":{"type":"Polygon","coordinates":[[[-122.66338401417616,45.280343736180996],[-122.66401135728074,45.281119752337275],[-122.66417361210664,45.281331209147176],[-122.66450081639516,45.280973143910408],[-122.66394452392618,45.280333136060669],[-122.66338401417616,45.280343736180996]]]},"properties":{"OBJECTID":100,"GRID_ID":"B-7","Shape_Length":986.88323454426143,"Shape_Area":45218.132223637302,"HEX_ID":100}},{"type":"Feature","id":101,"geometry":{"type":"Polygon","coordinates":[[[-122.66067124796406,45.280512139858843],[-122.66118238026083,45.280511580563946],[-122.66118295927211,45.280821243210553],[-122.66118343193619,45.281073327238445],[-122.66135234046622,45.28107013649376],[-122.66209209236436,45.280258425841637],[-122.66213949573044,45.280206409236293],[-122.66234716177105,45.280463305978763],[-122.66263765232486,45.280144548863625],[-122.66223173648559,45.279677517412132],[-122.66110726964483,45.279698763477754],[-122.66057108530252,45.280396891566681],[-122.66067124796406,45.280512139858843]]]},"properties":{"OBJECTID":101,"GRID_ID":"C-7","Shape_Length":1828.479322821242,"Shape_Area":141739.14517565817,"HEX_ID":101}},{"type":"Feature","id":102,"geometry":{"type":"Polygon","coordinates":[[[-122.65924718117139,45.281503764205858],[-122.65984430182277,45.281503117647645],[-122.65984374742671,45.281096958356031],[-122.66018531947304,45.281096592351844],[-122.66018991855879,45.280822327961722],[-122.66019511072147,45.280512659068755],[-122.66067124796406,45.280512139858843],[-122.66057108530252,45.280396891566681],[-122.65944660366139,45.280418121311129],[-122.65891039223011,45.28111624151353],[-122.65924718117139,45.281503764205858]]]},"properties":{"OBJECTID":102,"GRID_ID":"D-7","Shape_Length":1519.2792222941248,"Shape_Area":98491.134882538332,"HEX_ID":102}},{"type":"Feature","id":103,"geometry":{"type":"Polygon","coordinates":[[[-122.65719763914313,45.280460547627527],[-122.65778589578917,45.281137454936406],[-122.65891039223011,45.28111624151353],[-122.65944660366139,45.280418121311129],[-122.65885833472545,45.279741222436918],[-122.65773386537356,45.279762435354499],[-122.65719763914313,45.280460547627527]]]},"properties":{"OBJECTID":103,"GRID_ID":"E-7","Shape_Length":1737.2176291648943,"Shape_Area":217799.98296622868,"HEX_ID":103}},{"type":"Feature","id":104,"geometry":{"type":"Polygon","coordinates":[[[-122.65586569734843,45.281558209827914],[-122.65612514606208,45.281856765252115],[-122.6572496573023,45.281835568151259],[-122.65778589578917,45.281137454936406],[-122.65719763914313,45.280460547627527],[-122.6560731549927,45.280481744223493],[-122.65597309334588,45.280612008550293],[-122.65586569734843,45.281558209827914]]]},"properties":{"OBJECTID":104,"GRID_ID":"F-7","Shape_Length":1685.9501800691128,"Shape_Area":201296.33754713205,"HEX_ID":104}},{"type":"Feature","id":107,"geometry":{"type":"Polygon","coordinates":[[[-122.65896245227889,45.282491261068991],[-122.65955075081516,45.283168159016789],[-122.66067528663677,45.283146928260976],[-122.66121149555659,45.282448800087145],[-122.66117976064017,45.282412287763549],[-122.66111953284873,45.282412353257648],[-122.66043398255292,45.282413101653546],[-122.66043284074281,45.281919391612277],[-122.65940084492348,45.281920510672443],[-122.65896245227889,45.282491261068991]]]},"properties":{"OBJECTID":107,"GRID_ID":"D-6","Shape_Length":1758.5102566762293,"Shape_Area":177200.01268820342,"HEX_ID":107}},{"type":"Feature","id":108,"geometry":{"type":"Polygon","coordinates":[[[-122.6572496573023,45.281835568151259],[-122.65783792874758,45.282512474997148],[-122.65896245227889,45.282491261068991],[-122.65940084492348,45.281920510672443],[-122.65901345567981,45.281920928656291],[-122.65901288261941,45.281504016939671],[-122.65924718117139,45.281503764205858],[-122.65891039223011,45.28111624151353],[-122.65778589578917,45.281137454936406],[-122.6572496573023,45.281835568151259]]]},"properties":{"OBJECTID":108,"GRID_ID":"E-6","Shape_Length":1872.6296966830491,"Shape_Area":202807.78680871631,"HEX_ID":108}},{"type":"Feature","id":109,"geometry":{"type":"Polygon","coordinates":[[[-122.65573365995434,45.28272147160321],[-122.65617713960431,45.283231784960087],[-122.65730167793561,45.283210587354333],[-122.65783792874758,45.282512474997148],[-122.6572496573023,45.281835568151259],[-122.65612514606208,45.281856765252115],[-122.65578095186949,45.282304835995106],[-122.65576801743383,45.282418786857569],[-122.65573365995434,45.28272147160321]]]},"properties":{"OBJECTID":109,"GRID_ID":"F-6","Shape_Length":1714.6431295871291,"Shape_Area":214600.15768648285,"HEX_ID":109}},{"type":"Feature","id":112,"geometry":{"type":"Polygon","coordinates":[[[-122.65901451480379,45.283866279303368],[-122.65960282814133,45.284543176787338],[-122.66072739105515,45.284521945525817],[-122.66126361226458,45.283823817310129],[-122.66114572683654,45.28368818787235],[-122.66107257279845,45.283687823220021],[-122.66114534283568,45.283687745924304],[-122.66067528663677,45.283146928260976],[-122.65955075081516,45.283168159016789],[-122.65901451480379,45.283866279303368]]]},"properties":{"OBJECTID":112,"GRID_ID":"D-5","Shape_Length":1774.5866719103083,"Shape_Area":217798.46757012838,"HEX_ID":112}},{"type":"Feature","id":113,"geometry":{"type":"Polygon","coordinates":[[[-122.65730167793561,45.283210587354333],[-122.65788996418088,45.283887493736827],[-122.65901451480379,45.283866279303368],[-122.65955075081516,45.283168159016789],[-122.65896245227889,45.282491261068991],[-122.65783792874758,45.282512474997148],[-122.65730167793561,45.283210587354333]]]},"properties":{"OBJECTID":113,"GRID_ID":"E-5","Shape_Length":1737.2176291648943,"Shape_Area":217799.98296622868,"HEX_ID":113}},{"type":"Feature","id":114,"geometry":{"type":"Polygon","coordinates":[[[-122.65564086170062,45.283929889429189],[-122.6562291356536,45.284606804246188],[-122.65735370107727,45.284585606135508],[-122.65788996418088,45.283887493736827],[-122.65730167793561,45.283210587354333],[-122.65617713960431,45.283231784960087],[-122.65564086170062,45.283929889429189]]]},"properties":{"OBJECTID":114,"GRID_ID":"F-5","Shape_Length":1737.2176291648943,"Shape_Area":217799.98296622868,"HEX_ID":114}},{"type":"Feature","id":117,"geometry":{"type":"Polygon","coordinates":[[[-122.65906657983911,45.285241297115427],[-122.6593141996041,45.285526196805151],[-122.66002072479873,45.28502442049998],[-122.66038960564795,45.28476243598115],[-122.66072770703619,45.284522308641748],[-122.66072739105515,45.284521945525817],[-122.65960282814133,45.284543176787338],[-122.65906657983911,45.285241297115427]]]},"properties":{"OBJECTID":117,"GRID_ID":"D-4","Shape_Length":1217.1399787572766,"Shape_Area":66895.509155517604,"HEX_ID":117}},{"type":"Feature","id":118,"geometry":{"type":"Polygon","coordinates":[[[-122.65735370107727,45.284585606135508],[-122.65794200212325,45.285262512054189],[-122.65906657983911,45.285241297115427],[-122.65960282814133,45.284543176787338],[-122.65901451480379,45.283866279303368],[-122.65788996418088,45.283887493736827],[-122.65735370107727,45.284585606135508]]]},"properties":{"OBJECTID":118,"GRID_ID":"E-4","Shape_Length":1737.2176291648943,"Shape_Area":217799.98296622868,"HEX_ID":118}},{"type":"Feature","id":119,"geometry":{"type":"Polygon","coordinates":[[[-122.65569284545697,45.28530490875643],[-122.6562811342101,45.285981823109623],[-122.65740572672745,45.285960624494045],[-122.65794200212325,45.285262512054189],[-122.65735370107727,45.284585606135508],[-122.6562291356536,45.284606804246188],[-122.65569284545697,45.28530490875643]]]},"properties":{"OBJECTID":119,"GRID_ID":"F-4","Shape_Length":1737.217629190704,"Shape_Area":217799.98297270032,"HEX_ID":119}},{"type":"Feature","id":120,"geometry":{"type":"Polygon","coordinates":[[[-122.65559639730209,45.283930727139122],[-122.6555724594355,45.284141610938455],[-122.65543735057589,45.285309722046435],[-122.65569284545697,45.28530490875643],[-122.6562291356536,45.284606804246188],[-122.65564086170062,45.283929889429189],[-122.65559639730209,45.283930727139122]]]},"properties":{"OBJECTID":120,"GRID_ID":"G-4","Shape_Length":1160.7268906567463,"Shape_Area":55639.805816539498,"HEX_ID":120}},{"type":"Feature","id":121,"geometry":{"type":"Polygon","coordinates":[[[-122.65740572672745,45.285960624494045],[-122.65790273302221,45.286532472816887],[-122.65790816387431,45.286528587749615],[-122.65864503255457,45.286001427888657],[-122.6593141996041,45.285526196805151],[-122.65906657983911,45.285241297115427],[-122.65794200212325,45.285262512054189],[-122.65740572672745,45.285960624494045]]]},"properties":{"OBJECTID":121,"GRID_ID":"E-3","Shape_Length":1461.8285412442071,"Shape_Area":128066.77159491419,"HEX_ID":121}},{"type":"Feature","id":122,"geometry":{"type":"Polygon","coordinates":[[[-122.65574483171997,45.286679927660565],[-122.65633313530803,45.287356842449114],[-122.65682074749154,45.28734765230066],[-122.65698347176527,45.287205881972746],[-122.65735931559969,45.286921228374709],[-122.65775387864863,45.286638963366563],[-122.65790273302221,45.286532472816887],[-122.65740572672745,45.285960624494045],[-122.6562811342101,45.285981823109623],[-122.65574483171997,45.286679927660565]]]},"properties":{"OBJECTID":122,"GRID_ID":"F-3","Shape_Length":1646.2577217970479,"Shape_Area":187038.31928041461,"HEX_ID":122}},{"type":"Feature","id":123,"geometry":{"type":"Polygon","coordinates":[[[-122.65543735057589,45.285309722046435],[-122.65542000165155,45.285459710852258],[-122.65532744465384,45.286235872750261],[-122.65533570419777,45.286457813764464],[-122.65533841970978,45.286530763480087],[-122.6553449016874,45.286687461722053],[-122.65574483171997,45.286679927660565],[-122.6562811342101,45.285981823109623],[-122.65569284545697,45.28530490875643],[-122.65543735057589,45.285309722046435]]]},"properties":{"OBJECTID":123,"GRID_ID":"G-3","Shape_Length":1251.3660425098874,"Shape_Area":81688.478595567358,"HEX_ID":123}},{"type":"Feature","id":125,"geometry":{"type":"Polygon","coordinates":[[[-122.6553449016874,45.286687461722053],[-122.65539834871606,45.287979495671202],[-122.65539981855575,45.288015003391997],[-122.65540494247603,45.288062329426779],[-122.65579682052386,45.288054947040401],[-122.65633313530803,45.287356842449114],[-122.65574483171997,45.286679927660565],[-122.6553449016874,45.286687461722053]]]},"properties":{"OBJECTID":125,"GRID_ID":"G-2","Shape_Length":1284.4403090416617,"Shape_Area":87612.55004593065,"HEX_ID":125}}]
}