{
  "type" : "FeatureCollection",
  "features" : [{"type":"Feature","id":1,"geometry":{"type":"Polygon","coordinates":[[[-122.65845770651275,45.254292684194105],[-122.65963372543236,45.255646490913826],[-122.66124018877828,45.255616142209526],[-122.66129440392223,45.253010928254682],[-122.66114943242573,45.253028838439128],[-122.66061566998037,45.253027163402074],[-122.65991645117899,45.252999002377621],[-122.65953021287753,45.252939321494928],[-122.6594984299428,45.252937071639565],[-122.65845770651275,45.254292684194105]]]},"properties":{"OBJECTID":1,"GRID_ID":"B-14","HEX_ID":1,"SFSTD":0,"SFSM":0,"TH":0,"MF":0,"OS":0,"EMP":0,"LI":0,"HI":0,"ND":0,"Shape_Length":2970.7792794222305,"Shape_Area":559697.73435712734}},{"type":"Feature","id":2,"geometry":{"type":"Polygon","coordinates":[[[-122.6594984299428,45.252937071639565],[-122.65905194178259,45.252905458440971],[-122.65882160720976,45.252930942102907],[-122.65859144220867,45.252975700046008],[-122.65834283294713,45.253046276117459],[-122.65803789897853,45.253194972350528],[-122.65777035058312,45.253311145378213],[-122.65765971051094,45.253336961568479],[-122.65740204981182,45.253342662738255],[-122.65721781892972,45.253368143827871],[-122.65701513960855,45.253393457682989],[-122.65678514158537,45.253392787022172],[-122.65644466921501,45.253385243956515],[-122.65624735771742,45.253379298154783],[-122.65606356498174,45.253373760582406],[-122.65605509503612,45.254157014755009],[-122.65620977090646,45.254335091314459],[-122.65845770651275,45.254292684194105],[-122.6594984299428,45.252937071639565]]]},"properties":{"OBJECTID":2,"GRID_ID":"C-14","HEX_ID":2,"SFSTD":0,"SFSM":0,"TH":0,"MF":0,"OS":0,"EMP":0,"LI":0,"HI":0,"ND":0,"Shape_Length":2428.3067438522485,"Shape_Area":291388.62909651292}},{"type":"Feature","id":3,"geometry":{"type":"Polygon","coordinates":[[[-122.65856175832243,45.257042737616651],[-122.65973783635643,45.258396541612939],[-122.66118289135326,45.258369243210495],[-122.66124018877828,45.255616142209526],[-122.65963372543236,45.255646490913826],[-122.65856175832243,45.257042737616651]]]},"properties":{"OBJECTID":3,"GRID_ID":"B-13","HEX_ID":3,"SFSTD":0,"SFSM":0,"TH":0,"MF":0,"OS":0,"EMP":0,"LI":0,"HI":0,"ND":0,"Shape_Length":2948.0319043997379,"Shape_Area":539393.23425036715}},{"type":"Feature","id":4,"geometry":{"type":"Polygon","coordinates":[[[-122.65620977090646,45.254335091314459],[-122.65605093217793,45.254541969451225],[-122.65602699749631,45.256755069877798],[-122.65631371445393,45.257085146757206],[-122.65856175832243,45.257042737616651],[-122.65963372543236,45.255646490913826],[-122.65845770651275,45.254292684194105],[-122.65620977090646,45.254335091314459]]]},"properties":{"OBJECTID":4,"GRID_ID":"C-13","HEX_ID":4,"SFSTD":0,"SFSM":0,"TH":0,"MF":0,"OS":0,"EMP":0,"LI":0,"HI":0,"ND":0,"Shape_Length":3350.1591024223126,"Shape_Area":777670.10096860479}},{"type":"Feature","id":5,"geometry":{"type":"Polygon","coordinates":[[[-122.65866582012815,45.259792788512144],[-122.65984195735054,45.261146591580896],[-122.66115421998526,45.261121802523014],[-122.66116204989366,45.259370562454706],[-122.66089381347976,45.25936476452474],[-122.66116218273858,45.259364177473955],[-122.66118289135326,45.258369243210495],[-122.65973783635643,45.258396541612939],[-122.65866582012815,45.259792788512144]]]},"properties":{"OBJECTID":5,"GRID_ID":"B-12","HEX_ID":5,"SFSTD":0,"SFSM":0,"TH":0,"MF":0,"OS":0,"EMP":0,"LI":0,"HI":0,"ND":0,"Shape_Length":3007.8255593096665,"Shape_Area":499945.90198191343}},{"type":"Feature","id":6,"geometry":{"type":"Polygon","coordinates":[[[-122.65596899095469,45.25931869460333],[-122.65641766798703,45.25983519967302],[-122.65866582012815,45.259792788512144],[-122.65973783635643,45.258396541612939],[-122.65856175832243,45.257042737616651],[-122.65631371445393,45.257085146757206],[-122.65601928093197,45.257468609924665],[-122.65599949635073,45.259297777580684],[-122.65596899095469,45.25931869460333]]]},"properties":{"OBJECTID":6,"GRID_ID":"C-12","HEX_ID":6,"SFSTD":0,"SFSM":0,"TH":0,"MF":0,"OS":0,"EMP":0,"LI":0,"HI":0,"ND":0,"Shape_Length":3374.1053181737093,"Shape_Area":803460.11209202022}},{"type":"Feature","id":7,"geometry":{"type":"Polygon","coordinates":[[[-122.65596899095469,45.25931869460333],[-122.65588598779196,45.259375608446405],[-122.65588422973924,45.259376813654683],[-122.65559936506995,45.259377143801863],[-122.65560435443203,45.259647174490532],[-122.65560443281538,45.259651407580684],[-122.65560313525204,45.259651745308773],[-122.65561991791284,45.260874109812804],[-122.65641766798703,45.25983519967302],[-122.65596899095469,45.25931869460333]]]},"properties":{"OBJECTID":7,"GRID_ID":"D-12","HEX_ID":7,"SFSTD":0,"SFSM":0,"TH":0,"MF":0,"OS":0,"EMP":0,"LI":0,"HI":0,"ND":0,"Shape_Length":1301.6060443355825,"Shape_Area":66454.709815542272}},{"type":"Feature","id":8,"geometry":{"type":"Polygon","coordinates":[[[-122.6587698919994,45.262542838673347],[-122.65994608834799,45.263896639012252],[-122.66114191440803,45.263874050099908],[-122.66114489951437,45.263206530093967],[-122.66115421998526,45.261121802523014],[-122.65984195735054,45.261146591580896],[-122.6587698919994,45.262542838673347]]]},"properties":{"OBJECTID":8,"GRID_ID":"B-11","HEX_ID":8,"SFSTD":0,"SFSM":0,"TH":0,"MF":0,"OS":0,"EMP":0,"LI":0,"HI":0,"ND":0,"Shape_Length":2807.5738376252848,"Shape_Area":469162.10998207075}},{"type":"Feature","id":9,"geometry":{"type":"Polygon","coordinates":[[[-122.65562930853693,45.261558074527763],[-122.65652163157517,45.262585251854638],[-122.6587698919994,45.262542838673347],[-122.65984195735054,45.261146591580896],[-122.65866582012815,45.259792788512144],[-122.65641766798703,45.25983519967302],[-122.65561991791284,45.260874109812804],[-122.65562930853693,45.261558074527763]]]},"properties":{"OBJECTID":9,"GRID_ID":"C-11","HEX_ID":9,"SFSTD":0,"SFSM":0,"TH":0,"MF":0,"OS":0,"EMP":0,"LI":0,"HI":0,"ND":0,"Shape_Length":3435.8988167402676,"Shape_Area":862234.46185938793}},{"type":"Feature","id":10,"geometry":{"type":"Polygon","coordinates":[[[-122.65562930853693,45.261558074527763],[-122.65565883859671,45.263708812034103],[-122.65652163157517,45.262585251854638],[-122.65562930853693,45.261558074527763]]]},"properties":{"OBJECTID":10,"GRID_ID":"D-11","HEX_ID":10,"SFSTD":0,"SFSM":0,"TH":0,"MF":0,"OS":0,"EMP":0,"LI":0,"HI":0,"ND":0,"Shape_Length":1689.504496514385,"Shape_Area":88652.323142065201}},{"type":"Feature","id":11,"geometry":{"type":"Polygon","coordinates":[[[-122.65887397386956,45.26529288629488],[-122.66005022941842,45.26664668569984],[-122.66114551463937,45.266625996476797],[-122.66113792884552,45.26476545044779],[-122.66114191440803,45.263874050099908],[-122.65994608834799,45.263896639012252],[-122.65887397386956,45.26529288629488]]]},"properties":{"OBJECTID":11,"GRID_ID":"B-10","HEX_ID":11,"SFSTD":0,"SFSM":0,"TH":0,"MF":0,"OS":0,"EMP":0,"LI":0,"HI":0,"ND":0,"Shape_Length":2751.5499336813086,"Shape_Area":440456.23123005539}},{"type":"Feature","id":12,"geometry":{"type":"Polygon","coordinates":[[[-122.6556660043901,45.264230734614848],[-122.65662560515186,45.265335301496698],[-122.65887397386956,45.26529288629488],[-122.65994608834799,45.263896639012252],[-122.6587698919994,45.262542838673347],[-122.65652163157517,45.262585251854638],[-122.65565883859671,45.263708812034103],[-122.6556660043901,45.264230734614848]]]},"properties":{"OBJECTID":12,"GRID_ID":"C-10","HEX_ID":12,"SFSTD":0,"SFSM":0,"TH":0,"MF":0,"OS":0,"EMP":0,"LI":0,"HI":0,"ND":0,"Shape_Length":3445.0283795126616,"Shape_Area":865979.25474324566}},{"type":"Feature","id":13,"geometry":{"type":"Polygon","coordinates":[[[-122.652128857696,45.265419999340963],[-122.6533049545293,45.266773868078921],[-122.6555533824087,45.266731518148063],[-122.65662560515186,45.265335301496698],[-122.6556660043901,45.264230734614848],[-122.65567074274868,45.264575798247698],[-122.65555061482401,45.264574220154259],[-122.65555061473418,45.264574049117094],[-122.65486068828889,45.26457476241908],[-122.65277637981529,45.26457689066325],[-122.652128857696,45.265419999340963]]]},"properties":{"OBJECTID":13,"GRID_ID":"D-10","HEX_ID":13,"SFSTD":0,"SFSM":0,"TH":0,"MF":0,"OS":0,"EMP":0,"LI":0,"HI":0,"ND":0,"Shape_Length":3430.4282918965841,"Shape_Area":729725.51456722664}},{"type":"Feature","id":14,"geometry":{"type":"Polygon","coordinates":[[[-122.65897806580816,45.268042933169525],[-122.66015438049513,45.269396729838135],[-122.66115506322491,45.269377828018982],[-122.66115618191913,45.269241887546379],[-122.66114551463937,45.266625996476797],[-122.66005022941842,45.26664668569984],[-122.65897806580816,45.268042933169525]]]},"properties":{"OBJECTID":14,"GRID_ID":"B-9","HEX_ID":14,"SFSTD":0,"SFSM":0,"TH":0,"MF":0,"OS":0,"EMP":0,"LI":0,"HI":0,"ND":0,"Shape_Length":2701.2229482723678,"Shape_Area":416108.9834977712}},{"type":"Feature","id":15,"geometry":{"type":"Polygon","coordinates":[[[-122.6555533824087,45.266731518148063],[-122.65672958878655,45.268085350391942],[-122.65897806580816,45.268042933169525],[-122.66005022941842,45.26664668569984],[-122.65887397386956,45.26529288629488],[-122.65662560515186,45.265335301496698],[-122.6555533824087,45.266731518148063]]]},"properties":{"OBJECTID":15,"GRID_ID":"C-9","HEX_ID":15,"SFSTD":0,"SFSM":0,"TH":0,"MF":0,"OS":0,"EMP":0,"LI":0,"HI":0,"ND":0,"Shape_Length":3474.4358266048512,"Shape_Area":871200.21685008868}},{"type":"Feature","id":16,"geometry":{"type":"Polygon","coordinates":[[[-122.65223262472139,45.268170052271131],[-122.65340878067791,45.26952391827605],[-122.65565731686713,45.26948156632767],[-122.65672958878655,45.268085350391942],[-122.6555533824087,45.266731518148063],[-122.6533049545293,45.266773868078921],[-122.65223262472139,45.268170052271131]]]},"properties":{"OBJECTID":16,"GRID_ID":"D-9","HEX_ID":16,"SFSTD":0,"SFSM":0,"TH":0,"MF":0,"OS":0,"EMP":0,"LI":0,"HI":0,"ND":0,"Shape_Length":3474.4349302509381,"Shape_Area":871199.76733616204}},{"type":"Feature","id":17,"geometry":{"type":"Polygon","coordinates":[[[-122.652128857696,45.265419999340963],[-122.65197552077571,45.265422884375937],[-122.65198455682589,45.267309648670036],[-122.65198592772455,45.267595810970903],[-122.65198869959485,45.268174641624562],[-122.65223262472139,45.268170052271131],[-122.6533049545293,45.266773868078921],[-122.652128857696,45.265419999340963]]]},"properties":{"OBJECTID":17,"GRID_ID":"E-9","HEX_ID":17,"SFSTD":0,"SFSM":0,"TH":0,"MF":0,"OS":0,"EMP":0,"LI":0,"HI":0,"ND":0,"Shape_Length":2263.711936093895,"Shape_Area":196508.68840294963}},{"type":"Feature","id":18,"geometry":{"type":"Polygon","coordinates":[[[-122.65908216778261,45.270792978391277],[-122.66025854164768,45.272146773219959],[-122.66092177981243,45.272134246351499],[-122.66162030338275,45.271089046345686],[-122.66179286998778,45.270838927321975],[-122.66183882006426,45.270770833385058],[-122.66190826953006,45.270667917354658],[-122.66160443238604,45.270483473801249],[-122.66146418044301,45.27039322283531],[-122.66140006965755,45.270340178851697],[-122.66132229912665,45.270259896153327],[-122.66125801583513,45.270168952203932],[-122.66125755387526,45.270168132743159],[-122.66121739321567,45.270096885897473],[-122.66118496980603,45.269991220234772],[-122.66115463237698,45.269808614200656],[-122.66115324843388,45.2695984513689],[-122.66115506322491,45.269377828018982],[-122.66015438049513,45.269396729838135],[-122.65908216778261,45.270792978391277]]]},"properties":{"OBJECTID":18,"GRID_ID":"B-8","HEX_ID":18,"SFSTD":0,"SFSM":0,"TH":0,"MF":0,"OS":0,"EMP":0,"LI":0,"HI":0,"ND":0,"Shape_Length":2720.2491448228657,"Shape_Area":444692.41946564475}},{"type":"Feature","id":19,"geometry":{"type":"Polygon","coordinates":[[[-122.65565731686713,45.26948156632767],[-122.65683358244665,45.270835397634414],[-122.65908216778261,45.270792978391277],[-122.66015438049513,45.269396729838135],[-122.65897806580816,45.268042933169525],[-122.65672958878655,45.268085350391942],[-122.65565731686713,45.26948156632767]]]},"properties":{"OBJECTID":19,"GRID_ID":"C-8","HEX_ID":19,"SFSTD":0,"SFSM":0,"TH":0,"MF":0,"OS":0,"EMP":0,"LI":0,"HI":0,"ND":0,"Shape_Length":3474.4358265790415,"Shape_Area":871200.2168371455}},{"type":"Feature","id":20,"geometry":{"type":"Polygon","coordinates":[[[-122.65233640175133,45.270920103548725],[-122.65248549777033,45.271091723180604],[-122.65317541591878,45.271088580892368],[-122.65317528629187,45.271108515623851],[-122.65316494557226,45.271873794405252],[-122.65351261687097,45.272273967716984],[-122.6557612613805,45.272231613751018],[-122.65683358244665,45.270835397634414],[-122.65565731686713,45.26948156632767],[-122.65340878067791,45.26952391827605],[-122.65233640175133,45.270920103548725]]]},"properties":{"OBJECTID":20,"GRID_ID":"D-8","HEX_ID":20,"SFSTD":0,"SFSM":0,"TH":0,"MF":0,"OS":0,"EMP":0,"LI":0,"HI":0,"ND":0,"Shape_Length":3603.8318680442435,"Shape_Area":845773.97542543442}},{"type":"Feature","id":21,"geometry":{"type":"Polygon","coordinates":[[[-122.65198869959485,45.268174641624562],[-122.65199027396564,45.268503328336834],[-122.65199189925124,45.268842892121363],[-122.65199412029473,45.269306365697858],[-122.6519941277481,45.269307982321948],[-122.65199437346813,45.269359939206858],[-122.65199595813652,45.269689944443215],[-122.6519981190106,45.270140840539753],[-122.65199884444534,45.270292480434598],[-122.6519989736737,45.270319387761248],[-122.65199913411075,45.270352730949512],[-122.65199914016372,45.270354073938002],[-122.65199936314259,45.270400630023872],[-122.65200021253887,45.270577922452574],[-122.65200047097794,45.270631837925613],[-122.65200049353153,45.270636523956007],[-122.65200049295221,45.27063657617866],[-122.65200122377833,45.270788899210473],[-122.65200123553601,45.270791339438418],[-122.65200134927753,45.270815133253059],[-122.65200137172715,45.270819884099801],[-122.65200188223344,45.270926397263338],[-122.65233640175133,45.270920103548725],[-122.65340878067791,45.26952391827605],[-122.65223262472139,45.268170052271131],[-122.65198869959485,45.268174641624562]]]},"properties":{"OBJECTID":21,"GRID_ID":"E-8","HEX_ID":21,"SFSTD":0,"SFSM":0,"TH":0,"MF":0,"OS":0,"EMP":0,"LI":0,"HI":0,"ND":0,"Shape_Length":2310.3674338599944,"Shape_Area":219906.24946857305}},{"type":"Feature","id":22,"geometry":{"type":"Polygon","coordinates":[[[-122.65918627976033,45.273543021054302],[-122.65961139882231,45.274032239402928],[-122.65966533310061,45.273955536534189],[-122.65987822419962,45.273625795382358],[-122.66008473121238,45.273313577067228],[-122.66029607376315,45.273036077911826],[-122.6607838600578,45.272340609398057],[-122.66092177981243,45.272134246351499],[-122.66025854164768,45.272146773219959],[-122.65918627976033,45.273543021054302]]]},"properties":{"OBJECTID":22,"GRID_ID":"B-7","HEX_ID":22,"SFSTD":0,"SFSM":0,"TH":0,"MF":0,"OS":0,"EMP":0,"LI":0,"HI":0,"ND":0,"Shape_Length":1729.1160526578335,"Shape_Area":109796.11838330115}},{"type":"Feature","id":23,"geometry":{"type":"Polygon","coordinates":[[[-122.6557612613805,45.272231613751018],[-122.65693758609962,45.273585442318272],[-122.65918627976033,45.273543021054302],[-122.66025854164768,45.272146773219959],[-122.65908216778261,45.270792978391277],[-122.65683358244665,45.270835397634414],[-122.6557612613805,45.272231613751018]]]},"properties":{"OBJECTID":23,"GRID_ID":"C-7","HEX_ID":23,"SFSTD":0,"SFSM":0,"TH":0,"MF":0,"OS":0,"EMP":0,"LI":0,"HI":0,"ND":0,"Shape_Length":3474.4352583298196,"Shape_Area":871199.93186491472}},{"type":"Feature","id":24,"geometry":{"type":"Polygon","coordinates":[[[-122.65351261687097,45.272273967716984],[-122.65315321533933,45.272741878938589],[-122.65312994187609,45.274464050349323],[-122.65361646304204,45.275024014596291],[-122.65586521588224,45.274981658612617],[-122.65693758609962,45.273585442318272],[-122.6557612613805,45.272231613751018],[-122.65351261687097,45.272273967716984]]]},"properties":{"OBJECTID":24,"GRID_ID":"D-7","HEX_ID":24,"SFSTD":0,"SFSM":0,"TH":0,"MF":0,"OS":0,"EMP":0,"LI":0,"HI":0,"ND":0,"Shape_Length":3377.772228144072,"Shape_Area":814590.22509905917}},{"type":"Feature","id":25,"geometry":{"type":"Polygon","coordinates":[[[-122.65665866209916,45.275894795504087],[-122.65695792292289,45.275894746469966],[-122.65712681079047,45.275894718175692],[-122.65819045680381,45.275894534625124],[-122.65831428844018,45.275895675936482],[-122.65901130903097,45.2748856379554],[-122.65961139882231,45.274032239402928],[-122.65918627976033,45.273543021054302],[-122.65693758609962,45.273585442318272],[-122.65586521588224,45.274981658612617],[-122.65665866209916,45.275894795504087]]]},"properties":{"OBJECTID":25,"GRID_ID":"C-6","HEX_ID":25,"SFSTD":0,"SFSM":0,"TH":0,"MF":0,"OS":0,"EMP":0,"LI":0,"HI":0,"ND":0,"Shape_Length":2941.164934738139,"Shape_Area":590219.21017560922}},{"type":"Feature","id":26,"geometry":{"type":"Polygon","coordinates":[[[-122.65361646304204,45.275024014596291],[-122.65311352551295,45.275678764355241],[-122.65311059889326,45.275895318907324],[-122.65325249521381,45.27589530021671],[-122.65632701141497,45.275894849336872],[-122.65665866209916,45.275894795504087],[-122.65586521588224,45.274981658612617],[-122.65361646304204,45.275024014596291]]]},"properties":{"OBJECTID":26,"GRID_ID":"D-6","HEX_ID":26,"SFSTD":0,"SFSM":0,"TH":0,"MF":0,"OS":0,"EMP":0,"LI":0,"HI":0,"ND":0,"Shape_Length":2233.4799437974275,"Shape_Area":248009.05463541386}},{"type":"Feature","id":27,"geometry":{"type":"Polygon","coordinates":[[[-122.65939453386753,45.279043102277193],[-122.66057108530252,45.280396891566689],[-122.66199033814938,45.280370080868359],[-122.66209209363856,45.280258425817571],[-122.6621394970046,45.280206409212205],[-122.66226756711245,45.280364841757695],[-122.66243986282383,45.28036158535101],[-122.66294783728509,45.279804177381358],[-122.66309900023373,45.279991169828342],[-122.66340715360369,45.279589914107312],[-122.6631161470774,45.279475448129055],[-122.66296404802036,45.279415620051402],[-122.66288757146633,45.279385538021785],[-122.66272088511832,45.279319971138506],[-122.66116371926239,45.278707440674609],[-122.66108340812696,45.278675848248831],[-122.66099303378104,45.278628899331359],[-122.66070422540112,45.278781159419808],[-122.66046553614713,45.278878837275059],[-122.66034656786816,45.278937281726122],[-122.66030756795513,45.278937230477879],[-122.66013553819342,45.278976510275925],[-122.65985006822412,45.27899055358133],[-122.65943528296052,45.278990046640111],[-122.65939453386753,45.279043102277193]]]},"properties":{"OBJECTID":27,"GRID_ID":"B-5","HEX_ID":27,"SFSTD":0,"SFSM":0,"TH":0,"MF":0,"OS":0,"EMP":0,"LI":0,"HI":0,"ND":0,"Shape_Length":2786.5773923287879,"Shape_Area":394979.28611378395}},{"type":"Feature","id":28,"geometry":{"type":"Polygon","coordinates":[[[-122.66309900023373,45.279991169828342],[-122.664011358555,45.281119752313181],[-122.66417361214079,45.281331210046716],[-122.6650704406164,45.280349780325253],[-122.66493006719324,45.280210836258739],[-122.66489360641894,45.280174580890133],[-122.66340715360369,45.279589914107312],[-122.66309900023373,45.279991169828342]]]},"properties":{"OBJECTID":28,"GRID_ID":"A-4","HEX_ID":28,"SFSTD":0,"SFSM":0,"TH":0,"MF":0,"OS":0,"EMP":0,"LI":0,"HI":0,"ND":0,"Shape_Length":1670.0755479324926,"Shape_Area":155083.24629790318}},{"type":"Feature","id":29,"geometry":{"type":"Polygon","coordinates":[[[-122.6560731549927,45.280481744223515],[-122.6572496573023,45.281835568151259],[-122.65901329447661,45.281802301203584],[-122.65901288389367,45.281504016915619],[-122.65972133504425,45.281503251428049],[-122.65984408348569,45.281343437478029],[-122.65984374742671,45.281096958356045],[-122.66003355232813,45.281096755341203],[-122.66018870538228,45.280894748802403],[-122.66018991986708,45.280822328837225],[-122.66019511202973,45.28051265994425],[-122.66048241035766,45.280512346406738],[-122.66057108530252,45.280396891566689],[-122.65939453386753,45.279043102277193],[-122.65714562352598,45.279085527583071],[-122.6560731549927,45.280481744223515]]]},"properties":{"OBJECTID":29,"GRID_ID":"C-4","HEX_ID":29,"SFSTD":0,"SFSM":0,"TH":0,"MF":0,"OS":0,"EMP":0,"LI":0,"HI":0,"ND":0,"Shape_Length":3611.4061559158436,"Shape_Area":847433.24190605001}},{"type":"Feature","id":30,"geometry":{"type":"Polygon","coordinates":[[[-122.6560731549927,45.280481744223515],[-122.65598769484099,45.280483354700245],[-122.65580205229635,45.282118944689401],[-122.65576801870806,45.282418786833567],[-122.65567466136545,45.283241253123961],[-122.65617713960431,45.283231784960087],[-122.6572496573023,45.281835568151259],[-122.6560731549927,45.280481744223515]]]},"properties":{"OBJECTID":30,"GRID_ID":"D-4","HEX_ID":30,"SFSTD":0,"SFSM":0,"TH":0,"MF":0,"OS":0,"EMP":0,"LI":0,"HI":0,"ND":0,"Shape_Length":2318.2375011808526,"Shape_Area":221114.96664316455}},{"type":"Feature","id":31,"geometry":{"type":"Polygon","coordinates":[[[-122.65960282814133,45.284543176787352],[-122.66002095954028,45.28502425493231],[-122.66038960692224,45.28476243595712],[-122.66152962347518,45.283952756805299],[-122.66128570178047,45.283803015856172],[-122.66126291295306,45.283758738650462],[-122.66126016360592,45.283733773946004],[-122.66125874145148,45.283688751056424],[-122.66107257279845,45.283687823220035],[-122.66118108325406,45.28368770728202],[-122.66125874145148,45.283688751056424],[-122.66125049839162,45.28342787492425],[-122.66124128460193,45.283136238274786],[-122.66067528663677,45.283146928260976],[-122.65960282814133,45.284543176787352]]]},"properties":{"OBJECTID":31,"GRID_ID":"B-3","HEX_ID":31,"SFSTD":0,"SFSM":0,"TH":0,"MF":0,"OS":0,"EMP":0,"LI":0,"HI":0,"ND":0,"Shape_Length":1904.6228245318994,"Shape_Area":165414.24593188363}},{"type":"Feature","id":32,"geometry":{"type":"Polygon","coordinates":[[[-122.65617713960431,45.283231784960087],[-122.65735370107727,45.284585606135508],[-122.65960282814133,45.284543176787352],[-122.66067528663677,45.283146928260976],[-122.65960917813501,45.281920285486486],[-122.65901345695407,45.28192092863226],[-122.65901329447661,45.281802301203584],[-122.6572496573023,45.281835568151259],[-122.65617713960431,45.283231784960087]]]},"properties":{"OBJECTID":32,"GRID_ID":"C-3","HEX_ID":32,"SFSTD":0,"SFSM":0,"TH":0,"MF":0,"OS":0,"EMP":0,"LI":0,"HI":0,"ND":0,"Shape_Length":3491.6552634830632,"Shape_Area":864941.11212888651}},{"type":"Feature","id":33,"geometry":{"type":"Polygon","coordinates":[[[-122.65567466136545,45.283241253123961],[-122.65557245946952,45.284141611838002],[-122.65542000168557,45.285459711751855],[-122.65535566181272,45.285999260002015],[-122.6562811342101,45.285981823109623],[-122.65735370107727,45.284585606135508],[-122.65617713960431,45.283231784960087],[-122.65567466136545,45.283241253123961]]]},"properties":{"OBJECTID":33,"GRID_ID":"D-3","HEX_ID":33,"SFSTD":0,"SFSM":0,"TH":0,"MF":0,"OS":0,"EMP":0,"LI":0,"HI":0,"ND":0,"Shape_Length":2534.668100224585,"Shape_Area":329201.1778482332}},{"type":"Feature","id":34,"geometry":{"type":"Polygon","coordinates":[[[-122.6562811342101,45.285981823109623],[-122.65720147423447,45.287040773979022],[-122.65735931559969,45.286921228374709],[-122.65775387992294,45.286638963342547],[-122.65790816514863,45.286528587725591],[-122.65864503255457,45.286001427888671],[-122.66002072483282,45.285024421399584],[-122.66002095954028,45.28502425493231],[-122.65960282814133,45.284543176787352],[-122.65735370107727,45.284585606135508],[-122.6562811342101,45.285981823109623]]]},"properties":{"OBJECTID":34,"GRID_ID":"C-2","HEX_ID":34,"SFSTD":0,"SFSM":0,"TH":0,"MF":0,"OS":0,"EMP":0,"LI":0,"HI":0,"ND":0,"Shape_Length":2849.8871937690401,"Shape_Area":474228.48667341203}},{"type":"Feature","id":35,"geometry":{"type":"Polygon","coordinates":[[[-122.65535566181272,45.285999260002015],[-122.65532744592819,45.286235872726266],[-122.65533570550606,45.286457814640031],[-122.65533842098408,45.286530763456085],[-122.65539834999042,45.287979495647186],[-122.65539981983014,45.288015003368017],[-122.65540670934102,45.28807863928148],[-122.65541042647449,45.288112973118025],[-122.65598515446192,45.288202479283086],[-122.65633030378963,45.287791443383632],[-122.65661593452958,45.287526090455366],[-122.65698347179931,45.287205882872342],[-122.65720147423447,45.287040773979022],[-122.6562811342101,45.285981823109623],[-122.65535566181272,45.285999260002015]]]},"properties":{"OBJECTID":35,"GRID_ID":"D-2","HEX_ID":35,"SFSTD":0,"SFSM":0,"TH":0,"MF":0,"OS":0,"EMP":0,"LI":0,"HI":0,"ND":0,"Shape_Length":2142.2454967037329,"Shape_Area":261713.72059091876}}]
}