{
  "type" : "FeatureCollection",
  "features" : [{"type":"Feature","id":1,"geometry":{"type":"Polygon","coordinates":[[[-122.70317796692724,45.275066937647892],[-122.70360738267415,45.275560484747729],[-122.70415452901831,45.275549944031205],[-122.70415399441221,45.275458886544065],[-122.70413471937057,45.27506373030657],[-122.70334382681988,45.275066381782771],[-122.70317796692724,45.275066937647892]]]},"properties":{"OBJECTID":1,"GRID_ID":"E-7","Shape_Length":775.71468051283671,"Shape_Area":34788.401809226838,"SFSTD":0,"SFSM":0,"TH":0,"MF":0,"OS":0,"EMP":0,"ND":0,"HEX_ID":1}},{"type":"Feature","id":2,"geometry":{"type":"Polygon","coordinates":[[[-122.70135864283962,45.275603778969476],[-122.70194737464065,45.276280459833544],[-122.70307175746251,45.276258812477131],[-122.70360738267415,45.275560484747729],[-122.70317796692724,45.275066937647892],[-122.70288344550531,45.275067922900796],[-122.70243417947557,45.275069425513337],[-122.70198491338753,45.275070925462323],[-122.7017668068607,45.275071653137367],[-122.70135864283962,45.275603778969476]]]},"properties":{"OBJECTID":2,"GRID_ID":"F-7","Shape_Length":1663.6780425433992,"Shape_Area":196999.17803248001,"SFSTD":0,"SFSM":0,"TH":0,"MF":0,"OS":0,"EMP":0,"ND":0,"HEX_ID":2}},{"type":"Feature","id":3,"geometry":{"type":"Polygon","coordinates":[[[-122.70011078635464,45.275483469885963],[-122.70023427227974,45.275625409495731],[-122.70135864283962,45.275603778969476],[-122.7017668068607,45.275071653137367],[-122.70137187171004,45.275072970089987],[-122.70063482164021,45.275075424633862],[-122.70001326394554,45.275077489867684],[-122.70013432198823,45.275479940308713],[-122.70011078635464,45.275483469885963]]]},"properties":{"OBJECTID":3,"GRID_ID":"G-7","Shape_Length":1178.4869056882328,"Shape_Area":74045.369711571417,"SFSTD":0,"SFSM":0,"TH":0,"MF":0,"OS":0,"EMP":0,"ND":0,"HEX_ID":3}},{"type":"Feature","id":4,"geometry":{"type":"Polygon","coordinates":[[[-122.69807534972043,45.275771888434306],[-122.69934253252596,45.275775817579373],[-122.69934354269287,45.276330548034764],[-122.69969860388967,45.276323721450304],[-122.70023427227974,45.275625409495731],[-122.70011078635464,45.275483469885963],[-122.6996103342919,45.275558511251063],[-122.69944738983583,45.275016788446457],[-122.69944164503741,45.274997689188098],[-122.69943627038506,45.274979823310616],[-122.69942567776627,45.274952947568188],[-122.69940546482566,45.274955812677391],[-122.69842767014612,45.275092270225471],[-122.69798552732884,45.275668637427998],[-122.69807534972043,45.275771888434306]]]},"properties":{"OBJECTID":4,"GRID_ID":"H-7","Shape_Length":1872.7253074351756,"Shape_Area":138253.27346662854,"SFSTD":0,"SFSM":0,"TH":0,"MF":0,"OS":0,"EMP":0,"ND":0,"HEX_ID":4}},{"type":"Feature","id":5,"geometry":{"type":"Polygon","coordinates":[[[-122.69842767014612,45.275092270225471],[-122.69841484761272,45.275094059609636],[-122.69702546363347,45.27527703856542],[-122.69701739328664,45.275687234372541],[-122.69798552732884,45.275668637427998],[-122.69842767014612,45.275092270225471]]]},"properties":{"OBJECTID":5,"GRID_ID":"I-7","Shape_Length":1005.0295185385692,"Shape_Area":52711.835474272833,"SFSTD":0,"SFSM":0,"TH":0,"MF":0,"OS":0,"EMP":0,"ND":0,"HEX_ID":5}},{"type":"Feature","id":6,"geometry":{"type":"Polygon","coordinates":[[[-122.6946124028792,45.275733396476454],[-122.6952010547114,45.27641011205391],[-122.69586672107201,45.276397336848149],[-122.69586634268326,45.276182045165704],[-122.69586569265192,45.275812214318442],[-122.69607158642023,45.275812033962353],[-122.69607101355754,45.275486489453549],[-122.6960735304655,45.275404411754543],[-122.69549433206902,45.27549417622383],[-122.69499385137851,45.2755725889376],[-122.69470427693439,45.275613644640686],[-122.6946124028792,45.275733396476454]]]},"properties":{"OBJECTID":6,"GRID_ID":"J-7","Shape_Length":1286.1869084625978,"Shape_Area":91157.231681653895,"SFSTD":0,"SFSM":0,"TH":0,"MF":0,"OS":0,"EMP":0,"ND":0,"HEX_ID":6}},{"type":"Feature","id":9,"geometry":{"type":"Polygon","coordinates":[[[-122.70307175746251,45.276258812477131],[-122.70366051507291,45.276935484459138],[-122.70416258188122,45.276925812296774],[-122.70416088325516,45.276635542109375],[-122.70414795440111,45.276343397073127],[-122.70414492046388,45.276049618326645],[-122.70415572143109,45.275753389976302],[-122.70415452901831,45.275549944031205],[-122.70360738267415,45.275560484747729],[-122.70307175746251,45.276258812477131]]]},"properties":{"OBJECTID":9,"GRID_ID":"E-6","Shape_Length":1350.9659301427823,"Shape_Area":103391.0183037067,"SFSTD":0,"SFSM":0,"TH":0,"MF":0,"OS":0,"EMP":0,"ND":0,"HEX_ID":9}},{"type":"Feature","id":10,"geometry":{"type":"Polygon","coordinates":[[[-122.70141172107149,45.27697877971211],[-122.70200046769409,45.277655460108932],[-122.70312487760003,45.277633812236864],[-122.70366051507291,45.276935484459138],[-122.70307175746251,45.276258812477131],[-122.70194737464065,45.276280459833544],[-122.70141172107149,45.27697877971211]]]},"properties":{"OBJECTID":10,"GRID_ID":"F-6","Shape_Length":1737.2173010861832,"Shape_Area":217799.90070185231,"SFSTD":0,"SFSM":0,"TH":0,"MF":0,"OS":0,"EMP":0,"ND":0,"HEX_ID":10}},{"type":"Feature","id":11,"geometry":{"type":"Polygon","coordinates":[[[-122.69969860388967,45.276323721450304],[-122.70028732342807,45.277000410753601],[-122.70141172107149,45.27697877971211],[-122.70194737464065,45.276280459833544],[-122.70135864283962,45.275603778969476],[-122.70023427227974,45.275625409495731],[-122.69969860388967,45.276323721450304]]]},"properties":{"OBJECTID":11,"GRID_ID":"G-6","Shape_Length":1737.217629165204,"Shape_Area":217799.98296622868,"SFSTD":0,"SFSM":0,"TH":0,"MF":0,"OS":0,"EMP":0,"ND":0,"HEX_ID":11}},{"type":"Feature","id":12,"geometry":{"type":"Polygon","coordinates":[[[-122.69803852430988,45.277043639715473],[-122.69862723031029,45.277720337482215],[-122.69975164277469,45.277698722756114],[-122.70028732342807,45.277000410753601],[-122.69969860388967,45.276323721450304],[-122.69934354269287,45.276330548034764],[-122.69934379300938,45.276468123191037],[-122.69848207340235,45.276465453314025],[-122.69803852430988,45.277043639715473]]]},"properties":{"OBJECTID":12,"GRID_ID":"H-6","Shape_Length":1761.2830985446071,"Shape_Area":207964.71961269711,"SFSTD":0,"SFSM":0,"TH":0,"MF":0,"OS":0,"EMP":0,"ND":0,"HEX_ID":12}},{"type":"Feature","id":13,"geometry":{"type":"MultiPolygon","coordinates":[[[[-122.69701739328664,45.275687234372541],[-122.69701577474564,45.275769462300374],[-122.69708932982577,45.2757688220521],[-122.69807534972043,45.275771888434306],[-122.69798552732884,45.275668637427998],[-122.69701739328664,45.275687234372541]]],[[[-122.69701130379494,45.276805332881899],[-122.69701303374021,45.277063338162392],[-122.69803852430988,45.277043639715473],[-122.69848207340235,45.276465453314025],[-122.69709422019477,45.27646113937098],[-122.69709423719924,45.276471012602805],[-122.69709057924619,45.276471015338416],[-122.69700906152285,45.276471081115005],[-122.69701130379494,45.276805332881899]]]]},"properties":{"OBJECTID":13,"GRID_ID":"I-6","Shape_Length":1698.7205336414736,"Shape_Area":77792.219240389139,"SFSTD":0,"SFSM":0,"TH":0,"MF":0,"OS":0,"EMP":0,"ND":0,"HEX_ID":13}},{"type":"Feature","id":14,"geometry":{"type":"Polygon","coordinates":[[[-122.69512352307288,45.277635141360875],[-122.69586890127808,45.277637472875931],[-122.69586672107201,45.276397336848149],[-122.6952010547114,45.27641011205391],[-122.69466531860888,45.277108400306417],[-122.69512352307288,45.277635141360875]]]},"properties":{"OBJECTID":14,"GRID_ID":"J-6","Shape_Length":1330.3196456259066,"Shape_Area":109847.42207818145,"SFSTD":0,"SFSM":0,"TH":0,"MF":0,"OS":0,"EMP":0,"ND":0,"HEX_ID":14}},{"type":"Feature","id":15,"geometry":{"type":"Polygon","coordinates":[[[-122.69295227501698,45.276453241065092],[-122.6935409145824,45.277129965081066],[-122.69466531860888,45.277108400306417],[-122.6952010547114,45.27641011205391],[-122.6946124028792,45.275733396476454],[-122.69374181848873,45.275750094254064],[-122.69346124191765,45.27578987056814],[-122.69295227501698,45.276453241065092]]]},"properties":{"OBJECTID":15,"GRID_ID":"K-6","Shape_Length":1731.0545553833276,"Shape_Area":217390.35536805369,"SFSTD":0,"SFSM":0,"TH":0,"MF":0,"OS":0,"EMP":0,"ND":0,"HEX_ID":15}},{"type":"Feature","id":16,"geometry":{"type":"Polygon","coordinates":[[[-122.69285160042395,45.276455170853076],[-122.69285556853009,45.277628016444126],[-122.69315805032296,45.277628968845626],[-122.6935409145824,45.277129965081066],[-122.69295227501698,45.276453241065092],[-122.69285160042395,45.276455170853076]]]},"properties":{"OBJECTID":16,"GRID_ID":"L-6","Shape_Length":1027.8328932475411,"Shape_Area":48159.880906415288,"SFSTD":0,"SFSM":0,"TH":0,"MF":0,"OS":0,"EMP":0,"ND":0,"HEX_ID":16}},{"type":"Feature","id":18,"geometry":{"type":"Polygon","coordinates":[[[-122.70312487760003,45.277633812236864],[-122.70371365006807,45.278310484650802],[-122.70417388418413,45.278301618469001],[-122.70483807350992,45.278288819923269],[-122.70489949469187,45.27820874205446],[-122.70417767985693,45.278215415292976],[-122.70417281531299,45.27821537848456],[-122.70416731301255,45.278215335958933],[-122.70416999486052,45.27819215501767],[-122.70416586026265,45.277485792153612],[-122.70416258188122,45.276925812296774],[-122.70366051507291,45.276935484459138],[-122.70312487760003,45.277633812236864]]]},"properties":{"OBJECTID":18,"GRID_ID":"E-5","Shape_Length":1689.7494776708918,"Shape_Area":103641.3178581438,"SFSTD":0,"SFSM":0,"TH":0,"MF":0,"OS":0,"EMP":0,"ND":0,"HEX_ID":18}},{"type":"Feature","id":19,"geometry":{"type":"Polygon","coordinates":[[[-122.7014648018971,45.278353780934999],[-122.70205356334206,45.279030460864199],[-122.70317800033339,45.279008812476526],[-122.70342142987788,45.278691454860706],[-122.70370540515955,45.278321233617035],[-122.70371365006807,45.278310484650802],[-122.70312487760003,45.277633812236864],[-122.70200046769409,45.277655460108932],[-122.7014648018971,45.278353780934999]]]},"properties":{"OBJECTID":19,"GRID_ID":"F-5","Shape_Length":1737.2178693613141,"Shape_Area":217800.03240650179,"SFSTD":0,"SFSM":0,"TH":0,"MF":0,"OS":0,"EMP":0,"ND":0,"HEX_ID":19}},{"type":"Feature","id":20,"geometry":{"type":"Polygon","coordinates":[[[-122.69975164277469,45.277698722756114],[-122.70034037716884,45.278375412491698],[-122.7014648018971,45.278353780934999],[-122.70200046769409,45.277655460108932],[-122.70141172107149,45.27697877971211],[-122.70028732342807,45.277000410753601],[-122.69975164277469,45.277698722756114]]]},"properties":{"OBJECTID":20,"GRID_ID":"G-5","Shape_Length":1737.2181974143114,"Shape_Area":217800.12545234407,"SFSTD":0,"SFSM":0,"TH":0,"MF":0,"OS":0,"EMP":0,"ND":0,"HEX_ID":20}},{"type":"Feature","id":21,"geometry":{"type":"Polygon","coordinates":[[[-122.69809152388075,45.278418642483267],[-122.69868024470159,45.27909533978282],[-122.69980468425159,45.279073724541874],[-122.70034037716884,45.278375412491698],[-122.69975164277469,45.277698722756114],[-122.69862723031029,45.277720337482215],[-122.69809152388075,45.278418642483267]]]},"properties":{"OBJECTID":21,"GRID_ID":"H-5","Shape_Length":1737.2178693612609,"Shape_Area":217800.04319438551,"SFSTD":0,"SFSM":0,"TH":0,"MF":0,"OS":0,"EMP":0,"ND":0,"HEX_ID":21}},{"type":"Feature","id":22,"geometry":{"type":"Polygon","coordinates":[[[-122.69701303374021,45.277063338162392],[-122.69701541291383,45.277417954620105],[-122.69701677980179,45.27762182342245],[-122.69709263344085,45.277624123288348],[-122.69796673237099,45.277626842492445],[-122.69796777200553,45.278205509539141],[-122.69796789419506,45.278274081065952],[-122.69801062946617,45.278274214244973],[-122.69801089187226,45.278420191660651],[-122.69809152388075,45.278418642483267],[-122.69862723031029,45.277720337482215],[-122.69803852430988,45.277043639715473],[-122.69701303374021,45.277063338162392]]]},"properties":{"OBJECTID":22,"GRID_ID":"I-5","Shape_Length":1612.2579284994517,"Shape_Area":99367.403634824135,"SFSTD":0,"SFSM":0,"TH":0,"MF":0,"OS":0,"EMP":0,"ND":0,"HEX_ID":22}},{"type":"Feature","id":23,"geometry":{"type":"Polygon","coordinates":[[[-122.69315805032296,45.277628968845626],[-122.69444363447985,45.277633009858889],[-122.69512352307288,45.277635141360875],[-122.69466531860888,45.277108400306417],[-122.6935409145824,45.277129965081066],[-122.69315805032296,45.277628968845626]]]},"properties":{"OBJECTID":23,"GRID_ID":"K-5","Shape_Length":1227.7401634790363,"Shape_Area":74387.388779926419,"SFSTD":0,"SFSM":0,"TH":0,"MF":0,"OS":0,"EMP":0,"ND":0,"HEX_ID":23}},{"type":"Feature","id":25,"geometry":{"type":"Polygon","coordinates":[[[-122.70317800033339,45.279008812476526],[-122.70342450296452,45.279292110125674],[-122.70376678759028,45.279685483522798],[-122.70489123811811,45.279663818279268],[-122.70508705067785,45.27940853005461],[-122.70508113729429,45.278568157349618],[-122.70483807350992,45.278288819923269],[-122.70417388418413,45.278301618469001],[-122.70371365006807,45.278310484650802],[-122.70370540515955,45.278321233617035],[-122.70342142987788,45.278691454860706],[-122.70317800033339,45.279008812476526]]]},"properties":{"OBJECTID":25,"GRID_ID":"E-4","Shape_Length":1689.9069278623595,"Shape_Area":204277.19243678864,"SFSTD":0,"SFSM":0,"TH":0,"MF":0,"OS":0,"EMP":0,"ND":0,"HEX_ID":25}},{"type":"Feature","id":26,"geometry":{"type":"Polygon","coordinates":[[[-122.70151788524718,45.279728780838283],[-122.70152049112927,45.279731775223468],[-122.70210666151523,45.280405460299441],[-122.70323112559326,45.280383811396128],[-122.70376678759028,45.279685483522798],[-122.70342450296452,45.279292110125674],[-122.70317800033339,45.279008812476526],[-122.70205356334206,45.279030460864199],[-122.70151788524718,45.279728780838283]]]},"properties":{"OBJECTID":26,"GRID_ID":"F-4","Shape_Length":1737.2173010913966,"Shape_Area":217799.90882257256,"SFSTD":0,"SFSM":0,"TH":0,"MF":0,"OS":0,"EMP":0,"ND":0,"HEX_ID":26}},{"type":"Feature","id":27,"geometry":{"type":"Polygon","coordinates":[[[-122.69980468425159,45.279073724541874],[-122.70037066528617,45.279724244040381],[-122.70039343343281,45.279750412910218],[-122.70141234680123,45.279730811645074],[-122.70151788524718,45.279728780838283],[-122.70205356334206,45.279030460864199],[-122.7014648018971,45.278353780934999],[-122.70034037716884,45.278375412491698],[-122.69980468425159,45.279073724541874]]]},"properties":{"OBJECTID":27,"GRID_ID":"G-4","Shape_Length":1737.2176291653461,"Shape_Area":217799.97496050218,"SFSTD":0,"SFSM":0,"TH":0,"MF":0,"OS":0,"EMP":0,"ND":0,"HEX_ID":27}},{"type":"Feature","id":28,"geometry":{"type":"Polygon","coordinates":[[[-122.69820291438783,45.279717535995893],[-122.6989417447178,45.279719827094027],[-122.69894309783143,45.280466307896646],[-122.69985772825115,45.280448725007595],[-122.70039343343281,45.279750412910218],[-122.70037066528617,45.279724244040381],[-122.69980468425159,45.279073724541874],[-122.69868024470159,45.27909533978282],[-122.69820291438783,45.279717535995893]]]},"properties":{"OBJECTID":28,"GRID_ID":"H-4","Shape_Length":1824.4243206628701,"Shape_Area":180453.33442511916,"SFSTD":0,"SFSM":0,"TH":0,"MF":0,"OS":0,"EMP":0,"ND":0,"HEX_ID":28}},{"type":"Feature","id":29,"geometry":{"type":"Polygon","coordinates":[[[-122.69801089187226,45.278420191660651],[-122.69801146643417,45.278740496890286],[-122.69801322024568,45.279716946877322],[-122.698060877771,45.279717094417009],[-122.69809093937498,45.279717188412377],[-122.69820291438783,45.279717535995893],[-122.69868024470159,45.27909533978282],[-122.69809152388075,45.278418642483267],[-122.69801089187226,45.278420191660651]]]},"properties":{"OBJECTID":29,"GRID_ID":"I-4","Shape_Length":1089.8840392561444,"Shape_Area":48808.04300796309,"SFSTD":0,"SFSM":0,"TH":0,"MF":0,"OS":0,"EMP":0,"ND":0,"HEX_ID":29}},{"type":"Feature","id":30,"geometry":{"type":"Polygon","coordinates":[[[-122.70854598121579,45.281235912174616],[-122.70890670025045,45.28165039698515],[-122.71003118756087,45.28162868124533],[-122.71033166520307,45.281236889222214],[-122.70976897558715,45.281238490897572],[-122.70968622691032,45.281237841267853],[-122.70963980278366,45.281237477575807],[-122.70958375597093,45.281237397830367],[-122.70950686583325,45.281237288484157],[-122.70854598121579,45.281235912174616]]]},"properties":{"OBJECTID":30,"GRID_ID":"B-3","Shape_Length":1088.9482412724838,"Shape_Area":54958.432747836574,"SFSTD":0,"SFSM":0,"TH":0,"MF":0,"OS":0,"EMP":0,"ND":0,"HEX_ID":30}},{"type":"Feature","id":31,"geometry":{"type":"MultiPolygon","coordinates":[[[[-122.70494440528961,45.281038816214355],[-122.70509977771384,45.281217366598661],[-122.70509712055424,45.280839719335617],[-122.70494440528961,45.281038816214355]]],[[[-122.70553323445878,45.281715477883772],[-122.70665772433605,45.281693795292078],[-122.70701062409438,45.281233695725291],[-122.70511157684639,45.281230926002785],[-122.70553323445878,45.281715477883772]]]]},"properties":{"OBJECTID":31,"GRID_ID":"D-3","Shape_Length":1473.0581198699185,"Shape_Area":69767.137173780851,"SFSTD":0,"SFSM":0,"TH":0,"MF":0,"OS":0,"EMP":0,"ND":0,"HEX_ID":31}},{"type":"Feature","id":32,"geometry":{"type":"Polygon","coordinates":[[[-122.70323112559326,45.280383811396128],[-122.7038199276745,45.281060481973938],[-122.70494440528961,45.281038816214355],[-122.70509712055424,45.280839719335617],[-122.70509045792468,45.279892762146147],[-122.70489123811811,45.279663818279268],[-122.70376678759028,45.279685483522798],[-122.70323112559326,45.280383811396128]]]},"properties":{"OBJECTID":32,"GRID_ID":"E-3","Shape_Length":1683.9064811363364,"Shape_Area":200629.47333940765,"SFSTD":0,"SFSM":0,"TH":0,"MF":0,"OS":0,"EMP":0,"ND":0,"HEX_ID":32}},{"type":"Feature","id":33,"geometry":{"type":"Polygon","coordinates":[[[-122.7015709711567,45.281103780320691],[-122.70215976224854,45.281780459313396],[-122.70328425341459,45.281758809894448],[-122.7038199276745,45.281060481973938],[-122.70323112559326,45.280383811396128],[-122.70210666151523,45.280405460299441],[-122.7015709711567,45.281103780320691]]]},"properties":{"OBJECTID":33,"GRID_ID":"F-3","Shape_Length":1737.2173010861832,"Shape_Area":217799.90070185231,"SFSTD":0,"SFSM":0,"TH":0,"MF":0,"OS":0,"EMP":0,"ND":0,"HEX_ID":33}},{"type":"Feature","id":34,"geometry":{"type":"Polygon","coordinates":[[[-122.69985772825115,45.280448725007595],[-122.70044649225486,45.281125412907897],[-122.7015709711567,45.281103780320691],[-122.70210666151523,45.280405460299441],[-122.70152049112927,45.279731775223468],[-122.70151788524718,45.279728780838283],[-122.70141234680123,45.279730811645074],[-122.70039343343281,45.279750412910218],[-122.69985772825115,45.280448725007595]]]},"properties":{"OBJECTID":34,"GRID_ID":"G-3","Shape_Length":1737.2176291702144,"Shape_Area":217799.99933385127,"SFSTD":0,"SFSM":0,"TH":0,"MF":0,"OS":0,"EMP":0,"ND":0,"HEX_ID":34}},{"type":"Feature","id":35,"geometry":{"type":"Polygon","coordinates":[[[-122.69822359529314,45.281198603825274],[-122.69878628108316,45.281845341322736],[-122.6999107748082,45.281823725052071],[-122.70044649225486,45.281125412907897],[-122.69985772825115,45.280448725007595],[-122.69894309783143,45.280466307896646],[-122.69894428171592,45.281119483681529],[-122.69894525722277,45.281201026184988],[-122.69822359529314,45.281198603825274]]]},"properties":{"OBJECTID":35,"GRID_ID":"H-3","Shape_Length":1834.4514622353258,"Shape_Area":184266.7216061549,"SFSTD":0,"SFSM":0,"TH":0,"MF":0,"OS":0,"EMP":0,"ND":0,"HEX_ID":35}},{"type":"Feature","id":36,"geometry":{"type":"Polygon","coordinates":[[[-122.69482408114052,45.281233410177514],[-122.69541279224852,45.281910123886895],[-122.69653728980288,45.281888540740177],[-122.69706961423444,45.281194719609239],[-122.6970507053629,45.28119465602088],[-122.6957030038535,45.281197357705409],[-122.69486231699445,45.281183577221583],[-122.69482408114052,45.281233410177514]]]},"properties":{"OBJECTID":36,"GRID_ID":"J-3","Shape_Length":1455.6091963785138,"Shape_Area":112635.03715603476,"SFSTD":0,"SFSM":0,"TH":0,"MF":0,"OS":0,"EMP":0,"ND":0,"HEX_ID":36}},{"type":"Feature","id":38,"geometry":{"type":"Polygon","coordinates":[[[-122.69145062400649,45.281298075951739],[-122.69203929575632,45.281974807005547],[-122.69316379586192,45.281953257007387],[-122.69369959585443,45.281254976493123],[-122.69363301859774,45.281178443102448],[-122.69189392070273,45.281178951562453],[-122.69154319608701,45.281177436915307],[-122.69145062400649,45.281298075951739]]]},"properties":{"OBJECTID":38,"GRID_ID":"L-3","Shape_Length":1489.2749742520073,"Shape_Area":128812.63993125393,"SFSTD":0,"SFSM":0,"TH":0,"MF":0,"OS":0,"EMP":0,"ND":0,"HEX_ID":38}},{"type":"Feature","id":40,"geometry":{"type":"Polygon","coordinates":[[[-122.68807715922901,45.281362642281287],[-122.68866579289262,45.282039390653985],[-122.68979029427123,45.282017873828863],[-122.69032613617132,45.281319609119166],[-122.6901965139575,45.281170589399046],[-122.68823311476888,45.281159423738892],[-122.68807715922901,45.281362642281287]]]},"properties":{"OBJECTID":40,"GRID_ID":"N-3","Shape_Length":1522.0046909728314,"Shape_Area":143689.60938502537,"SFSTD":0,"SFSM":0,"TH":0,"MF":0,"OS":0,"EMP":0,"ND":0,"HEX_ID":40}},{"type":"Feature","id":43,"geometry":{"type":"Polygon","coordinates":[[[-122.71003118756087,45.28162868124533],[-122.7106200831676,45.282305316656029],[-122.71114801666265,45.282295114959517],[-122.71114188467389,45.282282165899645],[-122.71112940196994,45.282258190371067],[-122.7110898124819,45.282186910107775],[-122.71108889741473,45.282185081444474],[-122.71107780092863,45.282162916466383],[-122.71107231709982,45.282150666949534],[-122.71107135116844,45.282148348650189],[-122.7110671821988,45.282138339571972],[-122.71105761662528,45.282113528972253],[-122.7110351563859,45.282051222315545],[-122.71102573533068,45.282026454831559],[-122.71102067754742,45.28201417547367],[-122.71101525422354,45.2820020058046],[-122.71100932542241,45.281989987237907],[-122.71100271970133,45.281978170798212],[-122.71099485644598,45.281965953756924],[-122.71098625325915,45.281953958064349],[-122.7109771230749,45.281942117490424],[-122.71096763110488,45.281930384731616],[-122.71091880181461,45.281872083171407],[-122.71090945884733,45.281860279112138],[-122.71090052384199,45.281848341138065],[-122.71089216056093,45.281836217473014],[-122.71088464116889,45.28182411981031],[-122.71087765576274,45.281811849789186],[-122.71086922472048,45.281795643141955],[-122.71084533857059,45.281749731771868],[-122.71083843336817,45.281737490806066],[-122.71083100900496,45.281725442616171],[-122.71082284422192,45.281713668896444],[-122.71081375911109,45.281702232537477],[-122.71080391591674,45.281691075490706],[-122.71079351833875,45.281680123602769],[-122.71077166954301,45.281658604772133],[-122.71071548595059,45.281605310917179],[-122.71070462892277,45.281594479526404],[-122.71069412185425,45.281583498237907],[-122.71068410267446,45.281572306772723],[-122.71067461067904,45.281560767538437],[-122.7106656191395,45.281549013383845],[-122.71064864334639,45.281525075110281],[-122.71063244139924,45.281500803204928],[-122.71058487007181,45.281427600198661],[-122.71056852759199,45.281403517345296],[-122.71056008264368,45.28139165179757],[-122.71055136669067,45.281379966127695],[-122.71054228526589,45.281368523375697],[-122.71053272428244,45.28135740676548],[-122.71052207981536,45.281346069829937],[-122.7105208730393,45.281346846628672],[-122.7105097833801,45.281332972476633],[-122.71050928460133,45.281332441082363],[-122.71050883187323,45.281331781867529],[-122.71049371645235,45.281312871355681],[-122.71048271691897,45.281295828492276],[-122.71047199479278,45.281278507502101],[-122.71046454666941,45.281267323058216],[-122.71043938023757,45.28124070551489],[-122.71043412294856,45.281236596766746],[-122.71033166520307,45.281236889222214],[-122.71003118756087,45.28162868124533]]]},"properties":{"OBJECTID":43,"GRID_ID":"A-2","Shape_Length":1044.9338828638065,"Shape_Area":55630.221560762293,"SFSTD":0,"SFSM":0,"TH":0,"MF":0,"OS":0,"EMP":0,"ND":0,"HEX_ID":43}},{"type":"Feature","id":44,"geometry":{"type":"Polygon","coordinates":[[[-122.7083710827324,45.282348748628301],[-122.70895996607906,45.283025392479139],[-122.71008448047846,45.283003676222066],[-122.7106200831676,45.282305316656029],[-122.71003118756087,45.28162868124533],[-122.70890670025045,45.28165039698515],[-122.7083710827324,45.282348748628301]]]},"properties":{"OBJECTID":44,"GRID_ID":"B-2","Shape_Length":1737.2176291648943,"Shape_Area":217799.98296622868,"SFSTD":0,"SFSM":0,"TH":0,"MF":0,"OS":0,"EMP":0,"ND":0,"HEX_ID":44}},{"type":"Feature","id":45,"geometry":{"type":"Polygon","coordinates":[[[-122.70665772433605,45.281693795292078],[-122.70724658059369,45.282370448052504],[-122.7083710827324,45.282348748628301],[-122.70890670025045,45.28165039698515],[-122.70854598121579,45.281235912174616],[-122.70701062409438,45.281233695725291],[-122.70665772433605,45.281693795292078]]]},"properties":{"OBJECTID":45,"GRID_ID":"C-2","Shape_Length":1631.9106265835621,"Shape_Area":186553.91751770416,"SFSTD":0,"SFSM":0,"TH":0,"MF":0,"OS":0,"EMP":0,"ND":0,"HEX_ID":45}},{"type":"Feature","id":46,"geometry":{"type":"Polygon","coordinates":[[[-122.70553370508642,45.283029900092643],[-122.70590244462997,45.283032398492203],[-122.70652408087106,45.283035039265108],[-122.70673613477139,45.283035939414503],[-122.70724658059369,45.282370448052504],[-122.70665772433605,45.281693795292078],[-122.70553323445878,45.281715477883772],[-122.70499757502461,45.28241381372775],[-122.70553370508642,45.283029900092643]]]},"properties":{"OBJECTID":46,"GRID_ID":"D-2","Shape_Length":1717.6312637006208,"Shape_Area":212726.2256836826,"SFSTD":0,"SFSM":0,"TH":0,"MF":0,"OS":0,"EMP":0,"ND":0,"HEX_ID":46}},{"type":"Feature","id":47,"geometry":{"type":"Polygon","coordinates":[[[-122.70328425341459,45.281758809894448],[-122.70387307032091,45.282435480003386],[-122.70499757502461,45.28241381372775],[-122.70553323445878,45.281715477883772],[-122.70511157684639,45.281230926002785],[-122.70509987294538,45.281230908521337],[-122.70509977771384,45.281217366598661],[-122.70494440528961,45.281038816214355],[-122.7038199276745,45.281060481973938],[-122.70328425341459,45.281758809894448]]]},"properties":{"OBJECTID":47,"GRID_ID":"E-2","Shape_Length":1739.3654451025259,"Shape_Area":217792.54238970383,"SFSTD":0,"SFSM":0,"TH":0,"MF":0,"OS":0,"EMP":0,"ND":0,"HEX_ID":47}},{"type":"Feature","id":48,"geometry":{"type":"Polygon","coordinates":[[[-122.70208039391366,45.283003219185609],[-122.70219076783812,45.283004201452258],[-122.70342835918041,45.283015213374561],[-122.70387307032091,45.282435480003386],[-122.70328425341459,45.281758809894448],[-122.70215976224854,45.281780459313396],[-122.70162405962579,45.282478779381492],[-122.70208039391366,45.283003219185609]]]},"properties":{"OBJECTID":48,"GRID_ID":"F-2","Shape_Length":1680.3378303801517,"Shape_Area":202081.51034547802,"SFSTD":0,"SFSM":0,"TH":0,"MF":0,"OS":0,"EMP":0,"ND":0,"HEX_ID":48}},{"type":"Feature","id":49,"geometry":{"type":"Polygon","coordinates":[[[-122.6999107748082,45.281823725052071],[-122.7004995536352,45.282500412483927],[-122.70162405962579,45.282478779381492],[-122.70215976224854,45.281780459313396],[-122.7015709711567,45.281103780320691],[-122.70044649225486,45.281125412907897],[-122.6999107748082,45.281823725052071]]]},"properties":{"OBJECTID":49,"GRID_ID":"G-2","Shape_Length":1737.217629165204,"Shape_Area":217799.98296622868,"SFSTD":0,"SFSM":0,"TH":0,"MF":0,"OS":0,"EMP":0,"ND":0,"HEX_ID":49}},{"type":"Feature","id":50,"geometry":{"type":"Polygon","coordinates":[[[-122.69862356604558,45.282972387735704],[-122.69970437650366,45.282982037905889],[-122.69997632486006,45.282984464573929],[-122.70012716889235,45.282985810326245],[-122.7004995536352,45.282500412483927],[-122.6999107748082,45.281823725052071],[-122.69878628108316,45.281845341322736],[-122.69825053782185,45.282543645564665],[-122.69862356604558,45.282972387735704]]]},"properties":{"OBJECTID":50,"GRID_ID":"H-2","Shape_Length":1640.3395839722652,"Shape_Area":189375.63454255369,"SFSTD":0,"SFSM":0,"TH":0,"MF":0,"OS":0,"EMP":0,"ND":0,"HEX_ID":50}},{"type":"Feature","id":51,"geometry":{"type":"Polygon","coordinates":[[[-122.69653728980288,45.281888540740177],[-122.69712602799991,45.282565245542855],[-122.69825053782185,45.282543645564665],[-122.69878628108316,45.281845341322736],[-122.69822359529314,45.281198603825274],[-122.69706961423444,45.281194719609239],[-122.69653728980288,45.281888540740177]]]},"properties":{"OBJECTID":51,"GRID_ID":"I-2","Shape_Length":1730.0324180477628,"Shape_Area":215949.96528385294,"SFSTD":0,"SFSM":0,"TH":0,"MF":0,"OS":0,"EMP":0,"ND":0,"HEX_ID":51}},{"type":"Feature","id":52,"geometry":{"type":"Polygon","coordinates":[[[-122.69521864020973,45.283001106194092],[-122.69530650526394,45.28300121715413],[-122.6957533137308,45.283001783067661],[-122.69679009133917,45.283003090312747],[-122.69712602799991,45.282565245542855],[-122.69653728980288,45.281888540740177],[-122.69541279224852,45.281910123886895],[-122.69487700707612,45.282608412325928],[-122.69521864020973,45.283001106194092]]]},"properties":{"OBJECTID":52,"GRID_ID":"J-2","Shape_Length":1622.6314985163519,"Shape_Area":183342.90329936318,"SFSTD":0,"SFSM":0,"TH":0,"MF":0,"OS":0,"EMP":0,"ND":0,"HEX_ID":52}},{"type":"Feature","id":53,"geometry":{"type":"Polygon","coordinates":[[[-122.69316379586192,45.281953257007387],[-122.69375249470087,45.282629979155253],[-122.69487700707612,45.282608412325928],[-122.69541279224852,45.281910123886895],[-122.69482408114052,45.281233410177514],[-122.69369959585443,45.281254976493123],[-122.69316379586192,45.281953257007387]]]},"properties":{"OBJECTID":53,"GRID_ID":"K-2","Shape_Length":1737.2176291797955,"Shape_Area":217799.98296996509,"SFSTD":0,"SFSM":0,"TH":0,"MF":0,"OS":0,"EMP":0,"ND":0,"HEX_ID":53}},{"type":"Feature","id":54,"geometry":{"type":"Polygon","coordinates":[[[-122.69176365328374,45.282972179293289],[-122.69183451212861,45.282972446753959],[-122.69195112988696,45.282996912940831],[-122.69198610452877,45.282996958558989],[-122.6932123527184,45.282998542628519],[-122.69341642497525,45.282998804859439],[-122.69346943274607,45.282998873399727],[-122.69375249470087,45.282629979155253],[-122.69316379586192,45.281953257007387],[-122.69203929575632,45.281974807005547],[-122.69150346867454,45.282673079640468],[-122.69176365328374,45.282972179293289]]]},"properties":{"OBJECTID":54,"GRID_ID":"L-2","Shape_Length":1589.8688838886555,"Shape_Area":172530.24901410859,"SFSTD":0,"SFSM":0,"TH":0,"MF":0,"OS":0,"EMP":0,"ND":0,"HEX_ID":54}},{"type":"Feature","id":55,"geometry":{"type":"Polygon","coordinates":[[[-122.68979029427123,45.282017873828863],[-122.69037895375003,45.28269461332075],[-122.69150346867454,45.282673079640468],[-122.69203929575632,45.281974807005547],[-122.69145062400649,45.281298075951739],[-122.69032613617132,45.281319609119166],[-122.68979029427123,45.282017873828863]]]},"properties":{"OBJECTID":55,"GRID_ID":"M-2","Shape_Length":1737.2176291648943,"Shape_Area":217799.98296622868,"SFSTD":0,"SFSM":0,"TH":0,"MF":0,"OS":0,"EMP":0,"ND":0,"HEX_ID":55}},{"type":"Feature","id":56,"geometry":{"type":"Polygon","coordinates":[[[-122.6883225824799,45.282959143405051],[-122.68849312570607,45.282959791931994],[-122.68934789779223,45.282963039125399],[-122.69017057047188,45.282966157129486],[-122.69037895375003,45.28269461332075],[-122.68979029427123,45.282017873828863],[-122.68866579289262,45.282039390653985],[-122.68812992262889,45.282737647507886],[-122.6883225824799,45.282959143405051]]]},"properties":{"OBJECTID":56,"GRID_ID":"N-2","Shape_Length":1551.6115013844974,"Shape_Area":156274.22057795411,"SFSTD":0,"SFSM":0,"TH":0,"MF":0,"OS":0,"EMP":0,"ND":0,"HEX_ID":56}},{"type":"Feature","id":57,"geometry":{"type":"Polygon","coordinates":[[[-122.68747932255408,45.281374074170181],[-122.6874794749376,45.281440769703948],[-122.68747995899503,45.281653257994201],[-122.68748044171278,45.281865744500209],[-122.68748092563933,45.282078229173244],[-122.68744202035452,45.282078084498309],[-122.68744267132348,45.282352366351212],[-122.68744332240226,45.282626650886975],[-122.68744416364869,45.282750760387991],[-122.68812992262889,45.282737647507886],[-122.68866579289262,45.282039390653985],[-122.68807715922901,45.281362642281287],[-122.68747932255408,45.281374074170181]]]},"properties":{"OBJECTID":57,"GRID_ID":"O-2","Shape_Length":1421.5598067854473,"Shape_Area":119148.08455279721,"SFSTD":0,"SFSM":0,"TH":0,"MF":0,"OS":0,"EMP":0,"ND":0,"HEX_ID":57}},{"type":"Feature","id":58,"geometry":{"type":"Polygon","coordinates":[[[-122.71011743754043,45.283041543712578],[-122.71084855631699,45.283032130187422],[-122.71086656168147,45.282972531716489],[-122.71087170952194,45.282959539320331],[-122.71087762347622,45.282946737369521],[-122.7108838681754,45.28293519743432],[-122.71088791229172,45.282928501784781],[-122.71089805443312,45.282912534881916],[-122.71090942274391,45.282895896126725],[-122.71091728923651,45.282884383364191],[-122.7109210130883,45.282878932602088],[-122.710926913854,45.282869901916257],[-122.71094983488561,45.282830923354375],[-122.71095514539968,45.282819792161433],[-122.71096074650636,45.28280704576288],[-122.71097110687926,45.282781317171704],[-122.71100463035589,45.282690495400708],[-122.71101485220018,45.282664746975712],[-122.71102038326603,45.282652003727193],[-122.71102578735281,45.282640589853713],[-122.71102635197487,45.282639398756459],[-122.71102746165997,45.28263730140889],[-122.71102823278365,45.282635845257801],[-122.71103292348437,45.282626981984635],[-122.71103896995051,45.282617040155969],[-122.71104031606681,45.282614824811759],[-122.71104848312335,45.282603271121346],[-122.71105743377674,45.282591964250486],[-122.71106696539331,45.28258084149887],[-122.71108715823974,45.282558953154478],[-122.71109802400466,45.282547707393313],[-122.71113931457403,45.282504971857279],[-122.71114922075282,45.28249413713079],[-122.71118106972243,45.282449818718774],[-122.71118529137981,45.28243826564907],[-122.71118717406085,45.282425849463053],[-122.7111869372977,45.28241316726394],[-122.71118515394376,45.282400292600933],[-122.71118225974396,45.282387281868409],[-122.71117856886927,45.282374180306853],[-122.71117430956029,45.282361020414136],[-122.71116963590879,45.282347829819642],[-122.71115938305041,45.282321443625541],[-122.71114805137829,45.282295188106481],[-122.71114801666265,45.282295114959517],[-122.7106200831676,45.282305316656029],[-122.71008448047846,45.283003676222066],[-122.71011743754043,45.283041543712578]]]},"properties":{"OBJECTID":58,"GRID_ID":"A-1","Shape_Length":918.44467596610787,"Shape_Area":47376.9774147188,"SFSTD":0,"SFSM":0,"TH":0,"MF":0,"OS":0,"EMP":0,"ND":0,"HEX_ID":58}},{"type":"Feature","id":60,"geometry":{"type":"Polygon","coordinates":[[[-122.70673613477139,45.283035939414503],[-122.70714571720458,45.283037677560877],[-122.70894470285975,45.283045292095622],[-122.70895996607906,45.283025392479139],[-122.7083710827324,45.282348748628301],[-122.70724658059369,45.282370448052504],[-122.70673613477139,45.283035939414503]]]},"properties":{"OBJECTID":60,"GRID_ID":"C-1","Shape_Length":1431.6909378421249,"Shape_Area":107553.43198696805,"SFSTD":0,"SFSM":0,"TH":0,"MF":0,"OS":0,"EMP":0,"ND":0,"HEX_ID":60}},{"type":"Feature","id":61,"geometry":{"type":"Polygon","coordinates":[[[-122.70342835918041,45.283015213374561],[-122.70343396550366,45.283015262943458],[-122.70465768498514,45.283023961314214],[-122.70553370508642,45.283029900092643],[-122.70499757502461,45.28241381372775],[-122.70387307032091,45.282435480003386],[-122.70342835918041,45.283015213374561]]]},"properties":{"OBJECTID":61,"GRID_ID":"E-1","Shape_Length":1335.4198894999174,"Shape_Area":90640.358321414518,"SFSTD":0,"SFSM":0,"TH":0,"MF":0,"OS":0,"EMP":0,"ND":0,"HEX_ID":61}},{"type":"Feature","id":62,"geometry":{"type":"Polygon","coordinates":[[[-122.70012716889235,45.282985810326245],[-122.7003259747932,45.282987583844616],[-122.70094757192931,45.282993126431542],[-122.70208039391366,45.283003219185609],[-122.70162405962579,45.282478779381492],[-122.7004995536352,45.282500412483927],[-122.70012716889235,45.282985810326245]]]},"properties":{"OBJECTID":62,"GRID_ID":"G-1","Shape_Length":1217.9518997406944,"Shape_Area":72920.794043142552,"SFSTD":0,"SFSM":0,"TH":0,"MF":0,"OS":0,"EMP":0,"ND":0,"HEX_ID":62}},{"type":"Feature","id":63,"geometry":{"type":"Polygon","coordinates":[[[-122.69679009133917,45.283003090312747],[-122.69690793723876,45.283003238342737],[-122.69710144193076,45.282958778046286],[-122.69846118159631,45.282970936774852],[-122.69862356604558,45.282972387735704],[-122.69825053782185,45.282543645564665],[-122.69712602799991,45.282565245542855],[-122.69679009133917,45.283003090312747]]]},"properties":{"OBJECTID":63,"GRID_ID":"I-1","Shape_Length":1129.0295425727527,"Shape_Area":57064.108836238971,"SFSTD":0,"SFSM":0,"TH":0,"MF":0,"OS":0,"EMP":0,"ND":0,"HEX_ID":63}},{"type":"Feature","id":64,"geometry":{"type":"Polygon","coordinates":[[[-122.69346943274607,45.282998873399727],[-122.6944735768958,45.283000158392362],[-122.69521864020973,45.283001106194092],[-122.69487700707612,45.282608412325928],[-122.69375249470087,45.282629979155253],[-122.69346943274607,45.282998873399727]]]},"properties":{"OBJECTID":64,"GRID_ID":"K-1","Shape_Length":1060.7245090876672,"Shape_Area":51369.863841113976,"SFSTD":0,"SFSM":0,"TH":0,"MF":0,"OS":0,"EMP":0,"ND":0,"HEX_ID":64}},{"type":"Feature","id":65,"geometry":{"type":"Polygon","coordinates":[[[-122.69017057047188,45.282966157129486],[-122.69176365328374,45.282972179293289],[-122.69150346867454,45.282673079640468],[-122.69037895375003,45.28269461332075],[-122.69017057047188,45.282966157129486]]]},"properties":{"OBJECTID":65,"GRID_ID":"M-1","Shape_Length":940.1353384887592,"Shape_Area":36399.386265373709,"SFSTD":0,"SFSM":0,"TH":0,"MF":0,"OS":0,"EMP":0,"ND":0,"HEX_ID":65}}]
}